{"version": 0.6, "generator": "Overpass API 0.7.61.5 4133829e", "osm3s": {"timestamp_osm_base": "2023-12-26T01:36:43Z", "copyright": "The data included in this document is from www.openstreetmap.org. The data is made available under ODbL."}, "elements": [{"type": "node", "id": 479757409, "lat": -34.5885084, "lon": -58.4302819, "tags": {"amenity": "bar", "name": "Macondo Bar"}}, {"type": "node", "id": 479757410, "lat": -34.5886691, "lon": -58.4306045, "tags": {"addr:housenumber": "1590", "addr:street": "Serrano", "amenity": "bar", "name": "Utopia"}}, {"type": "node", "id": 479757411, "lat": -34.5887357, "lon": -58.4306292, "tags": {"addr:housenumber": "1580", "addr:street": "Serrano", "amenity": "bar", "name": "Pr\u00f3logo"}}, {"type": "node", "id": 479757412, "lat": -34.5888504, "lon": -58.4306506, "tags": {"addr:housenumber": "1556", "addr:street": "Serrano", "amenity": "bar", "name": "Tazz"}}, {"type": "node", "id": 724259211, "lat": -34.6029855, "lon": -58.3753399, "tags": {"amenity": "bar", "name": "Aroma Freddo"}}, {"type": "node", "id": 915725327, "lat": -34.6039235, "lon": -58.3825501, "tags": {"addr:housenumber": "1124", "addr:street": "Avenida Corrientes", "amenity": "bar", "cuisine": "steak_house", "internet_access": "wlan", "name": "Revire", "old_name": "Santander R\u00edo", "opening_hours": "Mo-Su 12:00-01:00"}}, {"type": "node", "id": 1009517899, "lat": -34.569828, "lon": -58.4832754, "tags": {"amenity": "bar", "name": "Cervecer\u00eda Doctor & Co."}}, {"type": "node", "id": 1009518240, "lat": -34.5758162, "lon": -58.4886899, "tags": {"amenity": "bar", "name": "Herman"}}, {"type": "node", "id": 1108412208, "lat": -34.6030051, "lon": -58.392251, "tags": {"amenity": "bar", "name": "Los Galgos", "source": "Reconocimiento terrestre por Kaart 2016", "wikidata": "Q56826893", "wikimedia_commons": "Category:Los Galgos"}}, {"type": "node", "id": 1109141331, "lat": -34.6016992, "lon": -58.3924261, "tags": {"amenity": "bar", "name": "San Salvador"}}, {"type": "node", "id": 1109141340, "lat": -34.5977928, "lon": -58.393298, "tags": {"amenity": "bar", "name": "Notorious"}}, {"type": "node", "id": 1112458312, "lat": -34.5988121, "lon": -58.3935303, "tags": {"amenity": "bar", "name": "Iruya"}}, {"type": "node", "id": 1114085203, "lat": -34.6040793, "lon": -58.3940413, "tags": {"amenity": "bar", "name": "Boston"}}, {"type": "node", "id": 1114122384, "lat": -34.6034, "lon": -58.3955902, "tags": {"amenity": "bar", "name": "Cine Bar"}}, {"type": "node", "id": 1114122470, "lat": -34.599588, "lon": -58.3959867, "tags": {"addr:city": "Ciudad Aut\u00f3noma de Buenos Aires", "addr:housenumber": "2001", "addr:postcode": "C1120AAC", "addr:street": "Avenida C\u00f3rdoba", "amenity": "bar", "branch": "Recoleta", "delivery": "yes", "name": "Santa Cebada", "outdoor_seating": "yes", "takeaway": "yes", "wheelchair": "no"}}, {"type": "node", "id": 1114122511, "lat": -34.5977694, "lon": -58.3960798, "tags": {"amenity": "bar", "name": "Kandinsky"}}, {"type": "node", "id": 1114129570, "lat": -34.5864337, "lon": -58.4545194, "tags": {"amenity": "bar"}}, {"type": "node", "id": 1134250774, "lat": -34.6029674, "lon": -58.3910396, "tags": {"amenity": "bar", "name": "Lavalle"}}, {"type": "node", "id": 1134640848, "lat": -34.6010184, "lon": -58.3915116, "tags": {"amenity": "bar", "name": "Saudade"}}, {"type": "node", "id": 1134640871, "lat": -34.5997932, "lon": -58.3916591, "tags": {"amenity": "bar", "name": "Metro"}}, {"type": "node", "id": 1141415147, "lat": -34.6041618, "lon": -58.3916967, "tags": {"amenity": "bar", "name": "Encuentro Sudeste"}}, {"type": "node", "id": 1141415152, "lat": -34.6034707, "lon": -58.390993, "tags": {"amenity": "bar", "name": "Am Bar Gris"}}, {"type": "node", "id": 1141415156, "lat": -34.6038306, "lon": -58.3906775, "tags": {"amenity": "bar", "name": "Tataki"}}, {"type": "node", "id": 1141424864, "lat": -34.5853316, "lon": -58.4542411, "tags": {"amenity": "bar"}}, {"type": "node", "id": 1144062579, "lat": -34.5970828, "lon": -58.3976695, "tags": {"amenity": "bar", "name": "El Galeno"}}, {"type": "node", "id": 1146277352, "lat": -34.5951101, "lon": -58.3934689, "tags": {"amenity": "bar", "name": "Oasis"}}, {"type": "node", "id": 1176292280, "lat": -34.5871611, "lon": -58.4381963, "tags": {"addr:street": "Humboldt", "amenity": "bar", "name": "The Bangalore & Company"}}, {"type": "node", "id": 1215523424, "lat": -34.5972078, "lon": -58.3883688, "tags": {"amenity": "bar", "name": "Facundo"}}, {"type": "node", "id": 1402319662, "lat": -34.6191585, "lon": -58.4281974}, {"type": "node", "id": 1455071553, "lat": -34.5943629, "lon": -58.3901858, "tags": {"addr:street": "Juncal", "amenity": "bar", "cuisine": "sandwich;coffee_shop", "name": "Bogot\u00e1"}}, {"type": "node", "id": 1455460657, "lat": -34.6072707, "lon": -58.3967557, "tags": {"amenity": "bar", "name": "Lasalle"}}, {"type": "node", "id": 1643930751, "lat": -34.5933349, "lon": -58.3843211, "tags": {"addr:city": "Buenos Aires", "addr:country": "AR", "addr:housenumber": "1275", "addr:postcode": "C1012AAZ", "addr:street": "Libertad", "amenity": "bar", "name": "Jack the Ripper"}}, {"type": "node", "id": 1659301153, "lat": -34.5976329, "lon": -58.4358507, "tags": {"addr:city": "Ciudad Aut\u00f3noma de Buenos Aires", "addr:housenumber": "526", "addr:postcode": "C1414ASL", "addr:street": "Aguirre", "amenity": "bar", "food": "yes", "name": "La Esperanza De Los Ascurra", "opening_hours": "Tu-Sa 12:30-15:30,18:30-24:00", "outdoor_seating": "yes", "phone": "+54 11 2058-8313", "website": "http://esperanzaascurra.com.ar/"}}, {"type": "node", "id": 1756736229, "lat": -34.620666, "lon": -58.3722775}, {"type": "node", "id": 1991443171, "lat": -34.6041407, "lon": -58.39399, "tags": {"addr:city": "Ciudad Aut\u00f3noma de Buenos Aires", "addr:country": "AR", "addr:housenumber": "416", "addr:street": "Riobamba", "amenity": "bar", "dance:style": "tango,milonga,nightclub", "dance:teaching": "no", "leisure": "dance", "name": "El Beso Club", "phone": "+54 11 4199-5902; +54 11 6111-1138", "website": "http://elbeso.com.ar/"}}, {"type": "node", "id": 2075594194, "lat": -34.6206269, "lon": -58.372189, "tags": {"addr:city": "Ciudad Aut\u00f3noma de Buenos Aires", "addr:housenumber": "1095", "addr:street": "Don Anselmo Aieta", "amenity": "bar", "food": "yes", "internet_access": "wlan", "name": "Todo Mundo", "outdoor_seating": "yes", "smoking": "outside", "source": "Reconocimiento terrestre por Kaart 2016", "website": "https://www.todomundosantelmo.com.ar/"}}, {"type": "node", "id": 2075595299, "lat": -34.6204195, "lon": -58.3722558, "tags": {"amenity": "bar", "name": "Patagonia", "outdoor_seating": "yes", "smoking": "outside"}}, {"type": "node", "id": 2123191048, "lat": -34.5554173, "lon": -58.4500368, "tags": {"amenity": "bar", "check_date": "2023-12-20", "name": "Olazabar", "phone": "+54 11 4787-5490"}}, {"type": "node", "id": 2165994760, "lat": -34.5411585, "lon": -58.4743184, "tags": {"amenity": "bar", "healthcare": "pharmacy", "name": "Open Bar"}}, {"type": "node", "id": 2166034015, "lat": -34.563582, "lon": -58.454838, "tags": {"amenity": "bar", "name": "Bitter"}}, {"type": "node", "id": 2199806412, "lat": -34.5572788, "lon": -58.4469172, "tags": {"addr:housenumber": "5921", "addr:street": "Avenida Del Libertador", "amenity": "bar", "name": "Dise\u00f1o Bar", "opening_hours": "24/7"}}, {"type": "node", "id": 2214802549, "lat": -34.5407604, "lon": -58.474096, "tags": {"amenity": "bar", "name": "Open Bar", "opening_hours": "Mo-Sa 06:00-24:00; Su 08:00-24:00"}}, {"type": "node", "id": 2250794750, "lat": -34.6004369, "lon": -58.4204773, "tags": {"amenity": "bar", "name": "Bar", "wifi": "free"}}, {"type": "node", "id": 2253880017, "lat": -34.5409386, "lon": -58.4745906, "tags": {"amenity": "bar", "name": "Open Bar"}}, {"type": "node", "id": 2301401777, "lat": -34.5973981, "lon": -58.4351688, "tags": {"addr:city": "Buenos Aires", "addr:housenumber": "666", "addr:postcode": "1414", "addr:street": "Avenida Ra\u00fal Scalabrini Ortiz", "amenity": "bar", "name": "El Marquee"}}, {"type": "node", "id": 2344998492, "lat": -34.6090476, "lon": -58.3793581, "tags": {"amenity": "bar", "name": "Dark Bar"}}, {"type": "node", "id": 2361025324, "lat": -34.5672576, "lon": -58.463383, "tags": {"addr:housenumber": "3195", "addr:street": "Echeverr\u00eda", "amenity": "bar", "name": "Downtown Matias", "website": "https://lacartaqr.com.ar/downtownmatias/idioma5g.php"}}, {"type": "node", "id": 2364859365, "lat": -34.6172849, "lon": -58.435369, "tags": {"amenity": "bar", "name": "The Oldest"}}, {"type": "node", "id": 2470335515, "lat": -34.5643727, "lon": -58.4560423, "tags": {"amenity": "bar", "name": "A lo de Juana"}}, {"type": "node", "id": 2511119732, "lat": -34.5411263, "lon": -58.4648745, "tags": {"amenity": "bar", "name": "Amaro"}}, {"type": "node", "id": 2535005926, "lat": -34.5499561, "lon": -58.4296738, "tags": {"amenity": "bar", "name": "Piur Disco"}}, {"type": "node", "id": 2550089779, "lat": -34.6029403, "lon": -58.41456, "tags": {"addr:housenumber": "3512", "addr:street": "Humahuaca", "amenity": "bar", "name": "Casona cultural Humahuaca"}}, {"type": "node", "id": 2662237977, "lat": -34.5795587, "lon": -58.4247506}, {"type": "node", "id": 2662237978, "lat": -34.5794351, "lon": -58.4249355}, {"type": "node", "id": 2662237979, "lat": -34.5794991, "lon": -58.424992}, {"type": "node", "id": 2662237980, "lat": -34.5796272, "lon": -58.4248109}, {"type": "node", "id": 2722400019, "lat": -34.6183462, "lon": -58.3700905, "tags": {"addr:housenumber": "299", "addr:street": "Estados Unidos", "amenity": "bar", "name": "Bar Sur", "note": "Bar Notable", "website": "https://www.bar-sur.com.ar/h/index.html"}}, {"type": "node", "id": 2722510492, "lat": -34.6195938, "lon": -58.3741592, "tags": {"addr:city": "Buenos Aires", "addr:housenumber": "599", "addr:street": "Carlos Calvo", "amenity": "bar", "name": "El Federal", "name:en": "Bar El Federal", "name:es": "Bar El Federal", "note": "Bar Notable", "source": "Reconocimiento terrestre por Kaart 2016", "wikidata": "Q5719207", "wikimedia_commons": "Category:Bar El Federal", "wikipedia": "es:Bar El Federal"}}, {"type": "node", "id": 2724708884, "lat": -34.5933957, "lon": -58.4380657, "tags": {"addr:city": "Ciudad Aut\u00f3noma de Buenos Aires", "addr:housenumber": "828", "addr:street": "Loyola", "amenity": "bar", "dance:style": "tango", "leisure": "dance", "name": "Club Fulgor"}}, {"type": "node", "id": 2726351487, "lat": -34.6184473, "lon": -58.3733294, "tags": {"addr:housenumber": "523", "addr:street": "Estados Unidos", "amenity": "bar", "name": "Achtung Bar"}}, {"type": "node", "id": 2726505362, "lat": -34.6231742, "lon": -58.3719293, "tags": {"addr:housenumber": "444", "addr:street": "Cochabamba", "amenity": "bar", "dance:style": "tango,milonga", "leisure": "dance"}}, {"type": "node", "id": 2726991875, "lat": -34.6147015, "lon": -58.3746945, "tags": {"addr:housenumber": "571", "addr:street": "Per\u00fa", "amenity": "bar", "dance:style": "tango,milonga", "leisure": "dance", "level": "1", "name": "Maldita Milonga", "name:de": "Maldita milonga"}}, {"type": "node", "id": 2727006188, "lat": -34.6174096, "lon": -58.3740421, "tags": {"addr:housenumber": "572", "addr:street": "Avenida Independencia", "amenity": "bar", "dance:style": "tango,milonga", "leisure": "dance", "name": "Club Independencia"}}, {"type": "node", "id": 2734380696, "lat": -34.6181531, "lon": -58.3758071, "tags": {"addr:housenumber": "872", "addr:street": "Chacabuco", "amenity": "bar", "cuisine": "argentinian", "internet_access": "wlan", "name": "El Refuerzo"}}, {"type": "node", "id": 2735661175, "lat": -34.6184497, "lon": -58.3744416, "tags": {"addr:housenumber": "899", "addr:street": "Per\u00fa", "amenity": "bar", "name": "Valentino"}}, {"type": "node", "id": 2821091749, "lat": -34.5926877, "lon": -58.3949299, "tags": {"addr:city": "Buenos Aires", "addr:housenumber": "2005", "addr:postcode": "1111", "addr:street": "Pe\u00f1a", "amenity": "bar", "name": "Ayacucho Hotel Bar", "opening_hours": "Mo-Sa 07:00-23:00", "smoking": "outside"}}, {"type": "node", "id": 2833423301, "lat": -34.6326184, "lon": -58.4808649, "tags": {"amenity": "bar", "name": "La Estaci\u00f3n"}}, {"type": "node", "id": 2958755070, "lat": -34.6060489, "lon": -58.3665685, "tags": {"addr:city": "Ciudad de Buenos Aires", "addr:housenumber": "740", "addr:street": "Avenida Alicia Moreau de Justo", "amenity": "bar", "cuisine": "american", "email": "pmadero@jbgood.com", "internet_access": "wlan", "name": "Johnny B. Good", "phone": "+54 11 4342-6192", "source": "survey", "website": "https://jbgood.com/", "wheelchair": "yes"}}, {"type": "node", "id": 2971999549, "lat": -34.6173996, "lon": -58.3786787, "tags": {"amenity": "bar", "name": "La Esquinita"}}, {"type": "node", "id": 3005749705, "lat": -34.5969277, "lon": -58.373184, "tags": {"addr:city": "Buenos Aires", "addr:housenumber": "936", "addr:postcode": "1058", "addr:street": "Reconquista", "amenity": "bar", "description": "Powered by Bitpagos", "name": "Sports n' Rock Bar", "opening_hours": "Mo-We 11:00-24:00; Th-Fr 11:00-03:00; Sa 19:00-03:00"}}, {"type": "node", "id": 3019249333, "lat": -34.6380917, "lon": -58.5253461, "tags": {"amenity": "bar", "name": "El Bondi"}}, {"type": "node", "id": 3049746997, "lat": -34.5511032, "lon": -58.4507256, "tags": {"amenity": "bar", "name": "Taberna Calle Fresca"}}, {"type": "node", "id": 3054464472, "lat": -34.596013, "lon": -58.3732667, "tags": {"addr:city": "Buenos Aires", "addr:housenumber": "1014", "addr:postcode": "1003", "addr:street": "Reconquista", "amenity": "bar", "description": "Powered by Bitpagos", "name": "El Salmon", "opening_hours": "Su-Th 10:00-24:00; Fr,Sa 10:00-03:00", "phone": "+54 11 4315-3362"}}, {"type": "node", "id": 3129731889, "lat": -34.6045475, "lon": -58.4303318, "tags": {"amenity": "bar", "contact:facebook": "barFMlatribu", "name": "La Tribu"}}, {"type": "node", "id": 3142744195, "lat": -34.6045787, "lon": -58.4131881, "tags": {"amenity": "bar", "name": "El Emergente"}}, {"type": "node", "id": 3153491562, "lat": -34.597933, "lon": -58.4007825, "tags": {"amenity": "bar", "name": "San Mart\u00edn"}}, {"type": "node", "id": 3174629961, "lat": -34.5866101, "lon": -58.4291097, "tags": {"amenity": "bar", "name": "Rabia"}}, {"type": "node", "id": 3174747479, "lat": -34.5966787, "lon": -58.3802088, "tags": {"addr:street": "Marcelo T. de Alvear", "amenity": "bar", "name": "Valentino Bar", "source": "Reconocimiento terrestre por Kaart 2016"}}, {"type": "node", "id": 3174759864, "lat": -34.5965196, "lon": -58.3805144, "tags": {"addr:street": "Marcelo T. de Alvear", "amenity": "bar", "name": "The Temple Bar", "source": "Reconocimiento terrestre por Kaart 2016"}}, {"type": "node", "id": 3175720087, "lat": -34.6111018, "lon": -58.3792044, "tags": {"addr:city": "Ciudad Aut\u00f3noma de Buenos Aires", "addr:housenumber": "231", "addr:street": "Tacuar\u00ed", "amenity": "bar", "name": "Londra", "source": "survey 2014-11-08"}}, {"type": "node", "id": 3176430861, "lat": -34.5966324, "lon": -58.3885407, "tags": {"addr:city": "Ciudad Aut\u00f3noma de Buenos Aires", "addr:housenumber": "1048", "addr:postcode": "C1060ABD", "addr:street": "Paran\u00e1", "amenity": "bar", "email": "info@milion.com.ar", "name": "Milion", "phone": "+54 11 4815-9925", "website": "http://www.milion.com.ar"}}, {"type": "node", "id": 3197046687, "lat": -34.6184679, "lon": -58.3753849, "tags": {"addr:housenumber": "671", "addr:street": "Estados Unidos", "amenity": "bar", "name": "Bar Setenta y Siete", "source": "Reconocimiento terrestre por Kaart 2016", "website": "http://www.barsetentaysiete.com/"}}, {"type": "node", "id": 3209916132, "lat": -34.5866093, "lon": -58.4452803, "tags": {"addr:housenumber": "1301", "addr:street": "Avenida Dorrego", "amenity": "bar", "name": "Sofa"}}, {"type": "node", "id": 3220121882, "lat": -34.6150673, "lon": -58.4375156, "tags": {"addr:city": "buenos Aires", "addr:housenumber": "263", "addr:postcode": "1406", "addr:street": "Avenida Acoyte", "amenity": "bar", "name": "Dark pool", "opening_hours": "20:00-03:00", "phone": "+54 11 4901-6946", "smoking": "no", "website": "https://www.facebook.com/pages/Dark-Pool-Caballito/108032412576238?fref=ts"}}, {"type": "node", "id": 3257752190, "lat": -34.5883446, "lon": -58.4298317, "tags": {"amenity": "bar", "name": "Cr\u00f3nico"}}, {"type": "node", "id": 3257752191, "lat": -34.5887523, "lon": -58.4297384, "tags": {"amenity": "bar", "name": "En Borges Bar"}}, {"type": "node", "id": 3257752192, "lat": -34.5888541, "lon": -58.4297507, "tags": {"amenity": "bar", "name": "Gonzalez"}}, {"type": "node", "id": 3257752195, "lat": -34.5890151, "lon": -58.4300007, "tags": {"amenity": "bar", "name": "Sans"}}, {"type": "node", "id": 3257752204, "lat": -34.5889871, "lon": -58.430274}, {"type": "node", "id": 3257752205, "lat": -34.5890016, "lon": -58.430474}, {"type": "node", "id": 3257752206, "lat": -34.589016, "lon": -58.4305248}, {"type": "node", "id": 3257752207, "lat": -34.5890593, "lon": -58.4301776}, {"type": "node", "id": 3257752208, "lat": -34.589068, "lon": -58.4305792}, {"type": "node", "id": 3257752209, "lat": -34.5891503, "lon": -58.4303302}, {"type": "node", "id": 3257752210, "lat": -34.589172, "lon": -58.4302951}, {"type": "node", "id": 3257752211, "lat": -34.5892059, "lon": -58.4303863}, {"type": "node", "id": 3295720076, "lat": -34.6238507, "lon": -58.4070502, "tags": {"addr:housenumber": "1180", "addr:street": "La Rioja", "amenity": "bar", "name": "Club Gricel"}}, {"type": "node", "id": 3295720078, "lat": -34.5909888, "lon": -58.4297793, "tags": {"addr:housenumber": "1366", "addr:street": "Armenia", "amenity": "bar", "name": "La Viruta"}}, {"type": "node", "id": 3346123532, "lat": -34.6259521, "lon": -58.4267651}, {"type": "node", "id": 3430628020, "lat": -34.6173678, "lon": -58.4347381, "tags": {"addr:city": "Buenos Aires", "addr:postcode": "1424", "addr:street": "Avenida Rivadavia", "amenity": "bar", "name": "El Coleccionista", "source": "Reconocimiento terrestre 2016 por Kaart."}}, {"type": "node", "id": 3632225282, "lat": -34.6059281, "lon": -58.395245, "tags": {"addr:housenumber": "2002", "addr:street": "Sarmiento", "amenity": "bar", "name": "El Alhambra", "opening_hours": "Mo-Sa 08:00-21:00"}}, {"type": "node", "id": 3735382375, "lat": -34.5848308, "lon": -58.4885138, "tags": {"amenity": "bar", "internet_access": "wlan", "name": "Bar El Faro", "opening_hours": "Mo-Fr 08:00-15:00; Sa 08:00-15:00,20:00-23:00", "wikidata": "Q56826668", "wikimedia_commons": "Category:Bar El Faro"}}, {"type": "node", "id": 3805648239, "lat": -34.5878587, "lon": -58.4271796, "tags": {"amenity": "bar", "name": "Bartola"}}, {"type": "node", "id": 3805648240, "lat": -34.5881872, "lon": -58.4266808, "tags": {"amenity": "bar", "name": "Budabar"}}, {"type": "node", "id": 3805664469, "lat": -34.5889622, "lon": -58.4295532, "tags": {"addr:housename": "4969", "addr:street": "Honduras", "amenity": "bar", "name": "Bar Sheldon"}}, {"type": "node", "id": 3819362819, "lat": -34.6178406, "lon": -58.3729945, "tags": {"addr:city": "Ciudad Autonoma de Buenos Aires", "addr:housenumber": "860", "addr:postcode": "C1066AAR", "addr:street": "Bol\u00edvar", "amenity": "bar", "name": "Breoghan", "opening_hours": "Mo-Su 18:00-03:00"}}, {"type": "node", "id": 3830940443, "lat": -34.6392035, "lon": -58.5249242, "tags": {"amenity": "bar", "name": "La Esquina"}}, {"type": "node", "id": 3878973446, "lat": -34.5895249, "lon": -58.4329874, "tags": {"addr:housenumber": "5115", "addr:street": "Jos\u00e9 Antonio Cabrera", "amenity": "bar", "name": "Birmania", "outdoor_seating": "yes", "phone": "+54 11 3804-5108"}}, {"type": "node", "id": 3878977519, "lat": -34.5882146, "lon": -58.431089, "tags": {"addr:housenumber": "5090", "addr:street": "Honduras", "amenity": "bar", "brewery": "Warsteiner", "name": "Taberna Od\u00edn"}}, {"type": "node", "id": 3879289980, "lat": -34.5810314, "lon": -58.4328846, "tags": {"addr:city": "Buenos Aires", "addr:country": "AR", "addr:housenumber": "2074", "addr:postcode": "C1414CWA", "addr:street": "Fitz Roy", "amenity": "bar", "level": "0", "name": "Sant\u00edsima Cervecer\u00eda", "opening_hours": "Su-We 17:00-01:00, Th-Sa 17:00-02:00", "phone": "+54 11 2289-1331", "smoking": "isolated", "website": "http://www.santisimacerveceria.com", "wheelchair": "yes"}}, {"type": "node", "id": 3955239282, "lat": -34.5912266, "lon": -58.4322758, "tags": {"addr:city": "Ciudad Aut\u00f3noma de Buenos Aires", "addr:housenumber": "1324", "addr:postcode": "C1414BAG", "addr:street": "Gurruchaga", "amenity": "bar", "name": "Otra Vuelta", "operator": "Batata"}}, {"type": "node", "id": 3966680274, "lat": -34.5881187, "lon": -58.4328278, "tags": {"amenity": "bar", "name": "Esquina Libertad", "outdoor_seating": "yes"}}, {"type": "node", "id": 3966684092, "lat": -34.5870166, "lon": -58.4330476}, {"type": "node", "id": 3968569261, "lat": -34.5977853, "lon": -58.4412741, "tags": {"amenity": "bar", "brand:wikipedia": "es:Caf\u00e9 San Bernardo", "delivery": "yes", "description": "Caf\u00e9 notable de la ciudad de Buenos Aires fundado en 1912. Dentro se puede jugar metegol, pool, billar y ping pong adem\u00e1s de numerosos juegos de mesa como ajedrez, domin\u00f3 o burako.", "name": "San Bernardo", "opening_hours": "08:00-04:00", "phone": "+54 11 4855-3956", "takeaway": "yes"}}, {"type": "node", "id": 4089940881, "lat": -34.611313, "lon": -58.3733237, "tags": {"addr:housenumber": "499", "addr:street": "Moreno", "amenity": "bar", "name": "Cafe Relax", "opening_hours": "Mo-Fr 07:00-21:00, 09:00-18:00; Sa 08:00-15:00", "phone": "+54 11 4331-5238"}}, {"type": "node", "id": 4103637814, "lat": -34.5886318, "lon": -58.4320794, "tags": {"addr:housenumber": "1514", "addr:postcode": "C1414DDF", "addr:street": "Thames", "amenity": "bar", "name": "70 30 Bar", "smoking": "outside"}}, {"type": "node", "id": 4121969209, "lat": -34.5924649, "lon": -58.4320881, "tags": {"addr:housenumber": "1242", "addr:street": "Armenia", "amenity": "bar", "name": "Bellagamba Bodeg\u00f3n", "short_name": "Bellagamba"}}, {"type": "node", "id": 4187615878, "lat": -34.5869079, "lon": -58.3843203, "tags": {"addr:housenumber": "1001", "addr:street": "Avenida del Libertador", "amenity": "bar", "name": "Camping"}}, {"type": "node", "id": 4238905691, "lat": -34.6208994, "lon": -58.375332, "tags": {"addr:housenumber": "670", "addr:postcode": "C1103ACN", "addr:street": "Humberto I", "amenity": "bar", "name": "BierLife", "opening_hours": "Mo-Sa 18:00-01:00", "phone": "+54 11 4307-6315", "source": "Reconocimiento terrestre por Kaart 2016", "website": "http://www.bierlife.com"}}, {"type": "node", "id": 4261759800, "lat": -34.6148022, "lon": -58.3711998, "tags": {"amenity": "bar", "name": "Sera de Dios"}}, {"type": "node", "id": 4279358190, "lat": -34.5918219, "lon": -58.3793429, "tags": {"addr:city": "Ciudad Aut\u00f3noma de Buenos Aires", "addr:housenumber": "872", "addr:street": "Arroyo", "amenity": "bar", "name": "Florer\u00eda Atl\u00e1ntico"}}, {"type": "node", "id": 4288045096, "lat": -34.6183352, "lon": -58.4361539}, {"type": "node", "id": 4289340902, "lat": -34.5925677, "lon": -58.3770226, "tags": {"amenity": "bar", "name": "BASA"}}, {"type": "node", "id": 4312146517, "lat": -34.623807, "lon": -58.3911865}, {"type": "node", "id": 4319023501, "lat": -34.5871725, "lon": -58.4383923, "tags": {"amenity": "bar", "name": "Carnal"}}, {"type": "node", "id": 4319023507, "lat": -34.5873882, "lon": -58.4380748, "tags": {"amenity": "bar", "check_date": "2023-11-27", "delivery": "no", "name": "LTA", "opening_hours": "Mo off; Tu-Su 19:00-05:00", "outdoor_seating": "yes", "survey:date": "2022-09-05"}}, {"type": "node", "id": 4319023511, "lat": -34.5846801, "lon": -58.4349359, "tags": {"amenity": "bar", "name": "Mellow"}}, {"type": "node", "id": 4319023513, "lat": -34.585752, "lon": -58.4383537, "tags": {"amenity": "bar", "name": "Nativo"}}, {"type": "node", "id": 4319023521, "lat": -34.5870261, "lon": -58.4391249, "tags": {"amenity": "bar", "name": "The Brother's Club"}}, {"type": "node", "id": 4322451389, "lat": -34.6373918, "lon": -58.4978638, "tags": {"amenity": "bar"}}, {"type": "node", "id": 4343045277, "lat": -34.5682317, "lon": -58.4357792, "tags": {"amenity": "bar", "name": "Bedford Station"}}, {"type": "node", "id": 4357503589, "lat": -34.6492972, "lon": -58.4894473, "tags": {"amenity": "bar", "name": "Il Tempo", "name:es": "Il Tempo"}}, {"type": "node", "id": 4361717489, "lat": -34.5745092, "lon": -58.4395593, "tags": {"amenity": "bar", "name": "Amores Porte\u00f1os"}}, {"type": "node", "id": 4384682092, "lat": -34.6470165, "lon": -58.3706939, "tags": {"addr:street": "Gaspar Melchor Jovellanos", "amenity": "bar", "name": "Dylan Cafe y Helados"}}, {"type": "node", "id": 4436232987, "lat": -34.5698672, "lon": -58.4899649, "tags": {"amenity": "bar", "name": "Winna"}}, {"type": "node", "id": 4444717289, "lat": -34.5928351, "lon": -58.439029, "tags": {"addr:city": "Ciudad Aut\u00f3noma de Buenos Aires", "addr:housenumber": "878", "addr:postcode": "1414", "addr:street": "Thames", "amenity": "bar", "contact:email": "info@878bar.com.ar", "contact:phone": "+54 11 4773-1098", "contact:website": "http://www.878bar.com.ar/", "name": "878", "name:es": "878", "opening_hours": "Mo-Fr 00:00-02:00,19:00-24:00; Sa-Su 00:00-03:00,20:00-24:00"}}, {"type": "node", "id": 4444730189, "lat": -34.589857, "lon": -58.4255006, "tags": {"amenity": "bar", "name": "The Harrison Speakeasy", "name:en": "The Harrison Speakeasy", "name:es": "The Harrison Speakeasy", "name:fr": "The Harrison Speakeasy"}}, {"type": "node", "id": 4444732789, "lat": -34.59191, "lon": -58.419086, "tags": {"amenity": "bar", "name": "Verne club", "name:en": "Verne club", "name:es": "Verne club", "name:fr": "Verne club"}}, {"type": "node", "id": 4444733293, "lat": -34.5811562, "lon": -58.4043096, "tags": {"amenity": "bar", "cuisine": "chicken", "name": "Versalles"}}, {"type": "node", "id": 4445034190, "lat": -34.61598, "lon": -58.3726028, "tags": {"amenity": "bar", "name:en": "Poseidon Bar Resto"}}, {"type": "node", "id": 4445050689, "lat": -34.615969, "lon": -58.372449, "tags": {"amenity": "bar", "name:en": "La Mafia Bar"}}, {"type": "node", "id": 4452040589, "lat": -34.5877723, "lon": -58.4227288, "tags": {"amenity": "bar", "name": "QTZ", "name:es": "QTZ"}}, {"type": "node", "id": 4455282193, "lat": -34.5979179, "lon": -58.4479182, "tags": {"amenity": "bar", "name": "Plaza serrano", "name:es": "Plaza serrano"}}, {"type": "node", "id": 4462627090, "lat": -34.572183, "lon": -58.4314554, "tags": {"amenity": "bar", "cuisine": "local;tapas;pizza", "name:en": "Antares"}}, {"type": "node", "id": 4482449993, "lat": -34.5830912, "lon": -58.4371626, "tags": {"amenity": "bar", "name:en": "Jacko's"}}, {"type": "node", "id": 4482449995, "lat": -34.5839821, "lon": -58.4378508, "tags": {"amenity": "bar", "name:en": "Grinds"}}, {"type": "node", "id": 4482456193, "lat": -34.5868277, "lon": -58.4330896, "tags": {"amenity": "bar", "name:en": "Tree House Pub"}}, {"type": "node", "id": 4482489090, "lat": -34.5834684, "lon": -58.433684, "tags": {"amenity": "bar", "name": "Stayhome", "name:en": "William Brown"}}, {"type": "node", "id": 4484733190, "lat": -34.5778446, "lon": -58.4385552, "tags": {"addr:city": "Ciudad Aut\u00f3noma de Buenos Aires", "addr:country": "AR", "addr:housenumber": "6080", "addr:postcode": "1414", "addr:street": "Nicaragua", "amenity": "bar", "contact:facebook": "https://www.facebook.com/cervecerianacionalbar", "email": "cervecerianacionalok@gmail.com", "name": "Cervecer\u00eda Nacional", "opening_hours": "Tu-Th 18:00-24:00; Fr-Sa 18:00-01:00", "outdoor_seating": "yes"}}, {"type": "node", "id": 4512084590, "lat": -34.567773, "lon": -58.4781433, "tags": {"addr:housenumber": "2637", "addr:postcode": "1430", "addr:street": "Holmberg", "amenity": "bar", "cuisine": "burger;sandwich;breakfast;deli;local;coffee_shop", "internet_access": "wlan", "name": "Holm Bar", "opening_hours": "Mo-Sa 10:00-20:00", "wheelchair": "limited"}}, {"type": "node", "id": 4519930289, "lat": -34.5876759, "lon": -58.3954057, "tags": {"amenity": "bar", "name": "Crafter", "name:es": "Crafter"}}, {"type": "node", "id": 4540384589, "lat": -34.5833774, "lon": -58.4292236, "tags": {"amenity": "bar", "internet_access": "wlan", "name": "Trionfale", "name:es": "Trionfale"}}, {"type": "node", "id": 4543689690, "lat": -34.6175188, "lon": -58.4537582, "tags": {"addr:housenumber": "1400", "addr:street": "M\u00e9ndez de Andes", "amenity": "bar", "name": "El fermentador", "name:es": "El fermentador"}}, {"type": "node", "id": 4564260760, "lat": -34.6314512, "lon": -58.3904959, "tags": {"amenity": "bar", "name": "La Armonia", "source": "Reconocimiento cartogr\u00e1fico de campo 2016 por KG."}}, {"type": "node", "id": 4569358858, "lat": -34.6194109, "lon": -58.3714832}, {"type": "node", "id": 4579809389, "lat": -34.610089, "lon": -58.4511814, "tags": {"addr:housenumber": "1617", "addr:street": "Avenida Gaona", "amenity": "bar", "name": "Bulgaria"}}, {"type": "node", "id": 4581757889, "lat": -34.5881863, "lon": -58.4311334, "tags": {"amenity": "bar", "name": "Erik Bar", "name:es": "Erik Bar"}}, {"type": "node", "id": 4587053471, "lat": -34.588363, "lon": -58.4351751, "tags": {"amenity": "bar", "name": "Sigue al conejo blanco", "name:es": "Sigue al conejo blanco"}}, {"type": "node", "id": 4591654015, "lat": -34.6434823, "lon": -58.4607516}, {"type": "node", "id": 4593336892, "lat": -34.5900073, "lon": -58.4342244}, {"type": "node", "id": 4600271157, "lat": -34.6325826, "lon": -58.4158359, "tags": {"addr:street": "Avenida Boedo", "amenity": "bar", "name": "Bier Welt", "source": "Reconocimiento cartogr\u00e1fico de campo 2016 por KG."}}, {"type": "node", "id": 4600539799, "lat": -34.5614593, "lon": -58.4579957}, {"type": "node", "id": 4600539800, "lat": -34.561567, "lon": -58.4579065}, {"type": "node", "id": 4602463031, "lat": -34.6344811, "lon": -58.388365, "tags": {"addr:street": "Perdriel", "amenity": "bar", "name": "D'Alta", "source": "Reconocimiento cartogr\u00e1fico de campo 2016 por KG."}}, {"type": "node", "id": 4612043881, "lat": -34.553202, "lon": -58.4575005, "tags": {"amenity": "bar", "name": "Poe"}}, {"type": "node", "id": 4612046596, "lat": -34.5532129, "lon": -58.4572366, "tags": {"amenity": "bar", "name": "Ner\u00f3n"}}, {"type": "node", "id": 4612968419, "lat": -34.5494136, "lon": -58.4750005, "tags": {"addr:city": "Buenos Aires", "addr:housenumber": "2969", "addr:postcode": "C1429DEF", "addr:street": "Avenida Garc\u00eda del R\u00edo", "amenity": "bar", "name": "Bulebar", "source": "Reconocimiento cartogr\u00e1fico de campo 2016 por KG.", "website": "http://www.lacantina.com.ar/"}}, {"type": "node", "id": 4612981694, "lat": -34.5881715, "lon": -58.4223307, "tags": {"addr:housenumber": "4462", "addr:street": "Guatemala", "amenity": "bar", "name": "The Monkey\u00b4s Bar", "name:es": "The Monkey\u00b4s  Bar"}}, {"type": "node", "id": 4613066889, "lat": -34.5882895, "lon": -58.4326977, "tags": {"addr:housenumber": "5151", "addr:street": "Gorriti", "amenity": "bar", "name": "Bar Soria", "name:es": "Bar Soria"}}, {"type": "node", "id": 4617124189, "lat": -34.584453, "lon": -58.4379669, "tags": {"addr:housenumber": "5568", "addr:street": "Gorriti", "amenity": "bar", "name": "Boris Club de Jazz", "name:es": "Boris Club de Jazz"}}, {"type": "node", "id": 4627637190, "lat": -34.6206475, "lon": -58.3727495, "tags": {"addr:housenumber": "499", "addr:street": "Humberto I", "amenity": "bar", "internet_access": "wlan", "name": "Comunidad del cisne", "outdoor_seating": "no", "phone": "+54 11 2848-3237", "source": "Reconocimiento terrestre por Kaart 2016", "website": "https://www.facebook.com/Comunidad-del-Cisne-Resto-Bar-1601920170057693/"}}, {"type": "node", "id": 4633147722, "lat": -34.5788149, "lon": -58.4127081, "tags": {"addr:housenumber": "3839", "addr:street": "Cervi\u00f1o", "amenity": "bar", "name": "Piba"}}, {"type": "node", "id": 4633176051, "lat": -34.5721662, "lon": -58.5049356, "tags": {"amenity": "bar", "name": "El Meson", "source": "Reconocimiento terrestre por Kaart 2016", "verify": "name"}}, {"type": "node", "id": 4649116835, "lat": -34.5615027, "lon": -58.458073}, {"type": "node", "id": 4649116836, "lat": -34.5615652, "lon": -58.4580213}, {"type": "node", "id": 4649116837, "lat": -34.5615444, "lon": -58.4579844}, {"type": "node", "id": 4649116838, "lat": -34.5615897, "lon": -58.4579469}, {"type": "node", "id": 4653627373, "lat": -34.5860045, "lon": -58.4405804, "tags": {"addr:street": "Avenida Coronel Niceto Vega", "amenity": "bar", "fixme": "name", "name": "Club La Octava", "source": "Reconocimiento cartogr\u00e1fico de campo 2016 por KG."}}, {"type": "node", "id": 4654129391, "lat": -34.5875099, "lon": -58.4386071}, {"type": "node", "id": 4654129392, "lat": -34.5875874, "lon": -58.4384874}, {"type": "node", "id": 4654129393, "lat": -34.587499, "lon": -58.4384017}, {"type": "node", "id": 4654129394, "lat": -34.5874438, "lon": -58.4384844}, {"type": "node", "id": 4654129395, "lat": -34.5874438, "lon": -58.4385435}, {"type": "node", "id": 4654337593, "lat": -34.5871716, "lon": -58.4384719}, {"type": "node", "id": 4654337594, "lat": -34.5872294, "lon": -58.4383953}, {"type": "node", "id": 4654337595, "lat": -34.587115, "lon": -58.438268}, {"type": "node", "id": 4654337596, "lat": -34.5870572, "lon": -58.4383446}, {"type": "node", "id": 4654439346, "lat": -34.6150312, "lon": -58.5051704}, {"type": "node", "id": 4654439347, "lat": -34.6150664, "lon": -58.5051402}, {"type": "node", "id": 4654439348, "lat": -34.6150738, "lon": -58.5050683}, {"type": "node", "id": 4654439349, "lat": -34.6150455, "lon": -58.5050194}, {"type": "node", "id": 4654439350, "lat": -34.6149774, "lon": -58.5050776}, {"type": "node", "id": 4656903942, "lat": -34.5869875, "lon": -58.5031175}, {"type": "node", "id": 4656903943, "lat": -34.5871158, "lon": -58.5029988}, {"type": "node", "id": 4656903944, "lat": -34.5870692, "lon": -58.5029245}, {"type": "node", "id": 4656903945, "lat": -34.5869409, "lon": -58.5030432}, {"type": "node", "id": 4657022708, "lat": -34.5823745, "lon": -58.442799, "tags": {"addr:street": "Jos\u00e9 Antonio Cabrera", "amenity": "bar", "name": "Go Bar", "source": "Reconocimiento cartogr\u00e1fico de campo 2016 por KG."}}, {"type": "node", "id": 4657098089, "lat": -34.5871075, "lon": -58.4500516}, {"type": "node", "id": 4657098090, "lat": -34.5871735, "lon": -58.4500813}, {"type": "node", "id": 4657098091, "lat": -34.5871526, "lon": -58.45015}, {"type": "node", "id": 4657098092, "lat": -34.5871067, "lon": -58.4501293}, {"type": "node", "id": 4657098093, "lat": -34.5870944, "lon": -58.4500945}, {"type": "node", "id": 4657098112, "lat": -34.5883272, "lon": -58.4509183}, {"type": "node", "id": 4657098113, "lat": -34.5882644, "lon": -58.4508135}, {"type": "node", "id": 4657098114, "lat": -34.5881859, "lon": -58.4508499}, {"type": "node", "id": 4657098115, "lat": -34.5882615, "lon": -58.4509763}, {"type": "node", "id": 4657098116, "lat": -34.5882052, "lon": -58.4507401}, {"type": "node", "id": 4657375159, "lat": -34.6175261, "lon": -58.529479}, {"type": "node", "id": 4657375160, "lat": -34.6176435, "lon": -58.529343}, {"type": "node", "id": 4657375161, "lat": -34.6176972, "lon": -58.5294031}, {"type": "node", "id": 4657375162, "lat": -34.617611, "lon": -58.5295191}, {"type": "node", "id": 4657375163, "lat": -34.6175578, "lon": -58.5295196}, {"type": "node", "id": 4657870349, "lat": -34.6146059, "lon": -58.5119699}, {"type": "node", "id": 4657870350, "lat": -34.614673, "lon": -58.5119138}, {"type": "node", "id": 4657870351, "lat": -34.6146294, "lon": -58.5118368}, {"type": "node", "id": 4657870352, "lat": -34.6146104, "lon": -58.5118203}, {"type": "node", "id": 4657870353, "lat": -34.6145941, "lon": -58.511817}, {"type": "node", "id": 4657870354, "lat": -34.6145778, "lon": -58.511822}, {"type": "node", "id": 4657870355, "lat": -34.61454, "lon": -58.5118535}, {"type": "node", "id": 4657889236, "lat": -34.5957921, "lon": -58.5008415}, {"type": "node", "id": 4657889237, "lat": -34.595664, "lon": -58.5006429}, {"type": "node", "id": 4657889239, "lat": -34.595863, "lon": -58.5007739}, {"type": "node", "id": 4657889240, "lat": -34.5957085, "lon": -58.5005339}, {"type": "node", "id": 4657898198, "lat": -34.6199861, "lon": -58.5060548}, {"type": "node", "id": 4657898199, "lat": -34.6200818, "lon": -58.5059789}, {"type": "node", "id": 4657898200, "lat": -34.6200576, "lon": -58.5059317}, {"type": "node", "id": 4657898201, "lat": -34.6199732, "lon": -58.5059684}, {"type": "node", "id": 4657898202, "lat": -34.6199623, "lon": -58.5060109}, {"type": "node", "id": 4659995334, "lat": -34.6184427, "lon": -58.4755846, "tags": {"addr:street": "Galicia", "amenity": "bar", "name": "El Sol", "opening_hours": "Mo-Sa 07:00-23:30", "source": "Reconocimiento terrestre por Kaart 2016"}}, {"type": "node", "id": 4660146383, "lat": -34.613253, "lon": -58.4797488, "tags": {"amenity": "bar", "name": "Ciro Bar", "source": "Reconocimiento terrestre por Kaart 2016"}}, {"type": "node", "id": 4660663461, "lat": -34.6020686, "lon": -58.4930144}, {"type": "node", "id": 4660663462, "lat": -34.6021387, "lon": -58.4929674}, {"type": "node", "id": 4660663463, "lat": -34.6021158, "lon": -58.4929172}, {"type": "node", "id": 4660663464, "lat": -34.6020865, "lon": -58.4929153}, {"type": "node", "id": 4660663465, "lat": -34.6020383, "lon": -58.4929476}, {"type": "node", "id": 4660716823, "lat": -34.6050789, "lon": -58.4953665, "tags": {"addr:street": "Llavallol", "amenity": "bar", "name": "Ritornare", "source": "Reconocimiento terrestre por Kaart 2016"}}, {"type": "node", "id": 4661162019, "lat": -34.5912887, "lon": -58.4532213}, {"type": "node", "id": 4661162020, "lat": -34.5912259, "lon": -58.4533088}, {"type": "node", "id": 4661162021, "lat": -34.5911615, "lon": -58.4532407}, {"type": "node", "id": 4661162022, "lat": -34.5911594, "lon": -58.4531831}, {"type": "node", "id": 4661162023, "lat": -34.5911996, "lon": -58.453127}, {"type": "node", "id": 4661186126, "lat": -34.5556855, "lon": -58.4693516, "tags": {"addr:city": "Ciudad Aut\u00f3noma de Buenos Aires", "addr:country": "AR", "addr:housenumber": "3134", "addr:postcode": "1429", "addr:street": "Avenida Cr\u00e1mer", "amenity": "bar", "contact:facebook": "https://www.facebook.com/El-Taller-Cerveceria-152742835575998/", "contact:instagram": "https://www.instagram.com/eltaller.cerveceria/", "drive_through": "no", "email": "belgranobirras@taller.com.ar", "name": "El Taller", "opening_hours": "Tu-Su 18:00-01:00", "outdoor_seating": "yes", "phone": "+54 11 4545-1176", "website": "http://www.taller.com.ar/"}}, {"type": "node", "id": 4668866710, "lat": -34.5900503, "lon": -58.4342783}, {"type": "node", "id": 4668866711, "lat": -34.5899401, "lon": -58.434408}, {"type": "node", "id": 4668866712, "lat": -34.5898971, "lon": -58.4343541}, {"type": "node", "id": 4669053369, "lat": -34.5941587, "lon": -58.426006}, {"type": "node", "id": 4669053370, "lat": -34.5942818, "lon": -58.4258517}, {"type": "node", "id": 4669053371, "lat": -34.5943384, "lon": -58.4259183}, {"type": "node", "id": 4669053372, "lat": -34.5942304, "lon": -58.4260535}, {"type": "node", "id": 4669053373, "lat": -34.5942023, "lon": -58.4260573}, {"type": "node", "id": 4669053374, "lat": -34.5946587, "lon": -58.4253588}, {"type": "node", "id": 4669053375, "lat": -34.5946977, "lon": -58.4254042}, {"type": "node", "id": 4669053376, "lat": -34.5947198, "lon": -58.4253761}, {"type": "node", "id": 4669053377, "lat": -34.5947215, "lon": -58.4253287}, {"type": "node", "id": 4669053378, "lat": -34.5947012, "lon": -58.425305}, {"type": "node", "id": 4669053383, "lat": -34.5951366, "lon": -58.4249412}, {"type": "node", "id": 4669053384, "lat": -34.5951988, "lon": -58.424888}, {"type": "node", "id": 4669053385, "lat": -34.5950645, "lon": -58.4246561}, {"type": "node", "id": 4669053386, "lat": -34.5950023, "lon": -58.4247093}, {"type": "node", "id": 4669255611, "lat": -34.5963008, "lon": -58.4198209}, {"type": "node", "id": 4669255612, "lat": -34.5963085, "lon": -58.4197436}, {"type": "node", "id": 4669255613, "lat": -34.5964171, "lon": -58.4197595}, {"type": "node", "id": 4669255614, "lat": -34.5964122, "lon": -58.419809}, {"type": "node", "id": 4669255615, "lat": -34.5963888, "lon": -58.4198337}, {"type": "node", "id": 4669653705, "lat": -34.5948594, "lon": -58.4367183, "tags": {"addr:street": "Loyola", "amenity": "bar", "name": "Hasta la Masa", "source": "Reconocimiento terrestre por Kaart 2016", "wheelchair": "yes"}}, {"type": "node", "id": 4672215408, "lat": -34.580435, "lon": -58.3981922}, {"type": "node", "id": 4672215409, "lat": -34.5804315, "lon": -58.398157}, {"type": "node", "id": 4672215410, "lat": -34.5804128, "lon": -58.3981238}, {"type": "node", "id": 4672215411, "lat": -34.5803854, "lon": -58.398101}, {"type": "node", "id": 4672215412, "lat": -34.5803547, "lon": -58.3980989}, {"type": "node", "id": 4672215413, "lat": -34.5803137, "lon": -58.3981176}, {"type": "node", "id": 4672215414, "lat": -34.5802775, "lon": -58.3981503}, {"type": "node", "id": 4672215415, "lat": -34.5803085, "lon": -58.3982009}, {"type": "node", "id": 4672215416, "lat": -34.5804196, "lon": -58.3982337}, {"type": "node", "id": 4672215417, "lat": -34.580377, "lon": -58.3981642}, {"type": "node", "id": 4672435900, "lat": -34.6174743, "lon": -58.3701566, "tags": {"amenity": "bar", "name": "Pub", "source": "Reconocimiento terrestre por Kaart 2016"}}, {"type": "node", "id": 4672632769, "lat": -34.5882742, "lon": -58.4507581}, {"type": "node", "id": 4673201390, "lat": -34.623924, "lon": -58.3911867}, {"type": "node", "id": 4673201391, "lat": -34.6239239, "lon": -58.3912648}, {"type": "node", "id": 4673201392, "lat": -34.6239083, "lon": -58.3912843}, {"type": "node", "id": 4673201393, "lat": -34.6238069, "lon": -58.3912841}, {"type": "node", "id": 4675229619, "lat": -34.6073015, "lon": -58.4849605}, {"type": "node", "id": 4675229620, "lat": -34.607364, "lon": -58.4849092}, {"type": "node", "id": 4675229621, "lat": -34.6074617, "lon": -58.4850719}, {"type": "node", "id": 4675229622, "lat": -34.6073985, "lon": -58.4851279}, {"type": "node", "id": 4676795626, "lat": -34.6016927, "lon": -58.4049218, "tags": {"addr:street": "Tucum\u00e1n", "amenity": "bar", "name": "Fresc\u00f3", "source": "Reconocimiento terrestre por Kaart 2016"}}, {"type": "node", "id": 4676832853, "lat": -34.6009914, "lon": -58.4141217, "tags": {"addr:street": "Lavalle", "amenity": "bar", "name": "Rotiseria Bar", "source": "Reconocimiento terrestre por Kaart 2016"}}, {"type": "node", "id": 4676959908, "lat": -34.6144942, "lon": -58.3707837, "tags": {"amenity": "bar", "name": "M.O.D", "source": "Reconocimiento terrestre por Kaart 2016"}}, {"type": "node", "id": 4676959944, "lat": -34.6166206, "lon": -58.3715416, "tags": {"amenity": "bar", "name": "Urbe Bar", "source": "Reconocimiento terrestre por Kaart 2016"}}, {"type": "node", "id": 4676986615, "lat": -34.614148, "lon": -58.3717814, "tags": {"amenity": "bar", "name": "Barba Roja", "source": "Reconocimiento terrestre por Kaart 2016"}}, {"type": "node", "id": 4676986621, "lat": -34.6137014, "lon": -58.3717968, "tags": {"amenity": "bar", "name": "DeBar Warsteiner", "source": "Reconocimiento terrestre por Kaart 2016"}}, {"type": "node", "id": 4677181691, "lat": -34.6160143, "lon": -58.3732393, "tags": {"amenity": "bar", "name": "Chupitos", "source": "Reconocimiento terrestre por Kaart 2016"}}, {"type": "node", "id": 4677181704, "lat": -34.6160143, "lon": -58.3720751, "tags": {"amenity": "bar", "name": "Borne Bar de Copas", "source": "Reconocimiento terrestre por Kaart 2016"}}, {"type": "node", "id": 4678794618, "lat": -34.6206269, "lon": -58.372374}, {"type": "node", "id": 4678794620, "lat": -34.6205713, "lon": -58.3722831}, {"type": "node", "id": 4679279782, "lat": -34.6390029, "lon": -58.5171666}, {"type": "node", "id": 4679279783, "lat": -34.6385851, "lon": -58.5171355}, {"type": "node", "id": 4679279784, "lat": -34.6385214, "lon": -58.5172267}, {"type": "node", "id": 4679279785, "lat": -34.6389951, "lon": -58.5172613}, {"type": "node", "id": 4681098689, "lat": -34.5949701, "lon": -58.3921696, "tags": {"amenity": "bar", "name:en": "The Shamrock Bar"}}, {"type": "node", "id": 4683846995, "lat": -34.6454703, "lon": -58.5202664, "tags": {"addr:street": "Lisandro de la Torre", "amenity": "bar", "name": "Aura", "source": "Reconocimiento terrestre por Kaart 2016"}}, {"type": "node", "id": 4683946095, "lat": -34.6488596, "lon": -58.5093021}, {"type": "node", "id": 4683946096, "lat": -34.6489342, "lon": -58.5092194}, {"type": "node", "id": 4683946097, "lat": -34.6489064, "lon": -58.5091537}, {"type": "node", "id": 4683946098, "lat": -34.6488757, "lon": -58.5091519}, {"type": "node", "id": 4683946099, "lat": -34.6488054, "lon": -58.5092299}, {"type": "node", "id": 4684429383, "lat": -34.6572557, "lon": -58.5093484}, {"type": "node", "id": 4684429384, "lat": -34.6574416, "lon": -58.509189}, {"type": "node", "id": 4684429385, "lat": -34.6573756, "lon": -58.5090865}, {"type": "node", "id": 4684429386, "lat": -34.6572172, "lon": -58.5092236}, {"type": "node", "id": 4684429387, "lat": -34.6572082, "lon": -58.5092836}, {"type": "node", "id": 4684654454, "lat": -34.5928549, "lon": -58.5081645}, {"type": "node", "id": 4684654455, "lat": -34.5929363, "lon": -58.5082054}, {"type": "node", "id": 4684654456, "lat": -34.5929733, "lon": -58.5080964}, {"type": "node", "id": 4684654457, "lat": -34.5928919, "lon": -58.5080556}, {"type": "node", "id": 4689637731, "lat": -34.6046274, "lon": -58.3943462, "tags": {"addr:city": "Ciudad Aut\u00f3noma de Buenos Aires", "addr:street": "Avenida Corrientes", "amenity": "bar", "name": "R\u00edo Bar", "source": "Reconocimiento terrestre por Kaart 2016"}}, {"type": "node", "id": 4689860586, "lat": -34.6258166, "lon": -58.4549126, "tags": {"addr:city": "Buenos Aires", "addr:street": "Avenida Rivadavia", "amenity": "bar", "name": "Friends"}}, {"type": "node", "id": 4699637482, "lat": -34.6102263, "lon": -58.4047617, "tags": {"addr:city": "Buenos Aires", "addr:street": "Avenida Rivadavia", "amenity": "bar", "name": "La Parrilla de Once", "source": "Reconocimiento terrestre 2016 por Kaart."}}, {"type": "node", "id": 4699661733, "lat": -34.598879, "lon": -58.4032998, "tags": {"addr:city": "Ciudad Aut\u00f3noma de Buenos Aires", "addr:street": "Avenida C\u00f3rdoba", "amenity": "bar", "fixme": "nombre", "name": "Bar ABC Pool", "source": "Reconocimiento terrestre por Kaart 2016"}}, {"type": "node", "id": 4699671210, "lat": -34.6065116, "lon": -58.3766272, "tags": {"addr:city": "Buenos Aires", "addr:street": "Maip\u00fa", "amenity": "bar", "contact:phone": "+54 11 4328-6306", "name": "Bar Ecuador"}}, {"type": "node", "id": 4700106965, "lat": -34.6184471, "lon": -58.4362185}, {"type": "node", "id": 4700106966, "lat": -34.6184067, "lon": -58.4361133}, {"type": "node", "id": 4700106968, "lat": -34.618369, "lon": -58.436242}, {"type": "node", "id": 4700106969, "lat": -34.6183881, "lon": -58.4362519}, {"type": "node", "id": 4700488822, "lat": -34.6017337, "lon": -58.4316488, "tags": {"addr:street": "Avenida Estado de Israel", "amenity": "bar", "name": "La Morena", "source": "Reconocimiento terrestre por Kaart 2016"}}, {"type": "node", "id": 4702072204, "lat": -34.5974627, "lon": -58.3760581, "tags": {"addr:street": "Paraguay", "amenity": "bar", "name": "Tancat"}}, {"type": "node", "id": 4702543613, "lat": -34.6226034, "lon": -58.3929007}, {"type": "node", "id": 4702543614, "lat": -34.6226777, "lon": -58.3928953}, {"type": "node", "id": 4702543615, "lat": -34.6227168, "lon": -58.3928537}, {"type": "node", "id": 4702543616, "lat": -34.6227129, "lon": -58.3927736}, {"type": "node", "id": 4702543617, "lat": -34.6225975, "lon": -58.3927819}, {"type": "node", "id": 4702843029, "lat": -34.6180261, "lon": -58.3873899, "tags": {"addr:city": "Buenos Aires", "addr:street": "Avenida Independencia", "amenity": "bar"}}, {"type": "node", "id": 4703774581, "lat": -34.6633605, "lon": -58.4885278}, {"type": "node", "id": 4703774582, "lat": -34.663458, "lon": -58.4884822}, {"type": "node", "id": 4703774583, "lat": -34.6635207, "lon": -58.488554}, {"type": "node", "id": 4703774584, "lat": -34.6634405, "lon": -58.4886575}, {"type": "node", "id": 4703774585, "lat": -34.663399, "lon": -58.4886496}, {"type": "node", "id": 4704114195, "lat": -34.643565, "lon": -58.4606571}, {"type": "node", "id": 4704114196, "lat": -34.6435124, "lon": -58.460589}, {"type": "node", "id": 4704114197, "lat": -34.6433968, "lon": -58.4607211}, {"type": "node", "id": 4704114198, "lat": -34.6420803, "lon": -58.462526}, {"type": "node", "id": 4704114199, "lat": -34.642153, "lon": -58.4624801}, {"type": "node", "id": 4704114200, "lat": -34.6421662, "lon": -58.4624429}, {"type": "node", "id": 4704114201, "lat": -34.6420979, "lon": -58.4623267}, {"type": "node", "id": 4704114202, "lat": -34.6420064, "lon": -58.4624061}, {"type": "node", "id": 4704222714, "lat": -34.6308082, "lon": -58.470743, "tags": {"addr:street": "Avenida Rivadavia", "amenity": "bar", "name": "Sole", "source": "Reconocimiento terrestre por Kaart 2016"}}, {"type": "node", "id": 4704273494, "lat": -34.6194569, "lon": -58.371479}, {"type": "node", "id": 4704273495, "lat": -34.6194796, "lon": -58.3714591}, {"type": "node", "id": 4704273496, "lat": -34.6194735, "lon": -58.3713625}, {"type": "node", "id": 4704273497, "lat": -34.619405, "lon": -58.3713677}, {"type": "node", "id": 4706006489, "lat": -34.58999, "lon": -58.4300835, "tags": {"amenity": "bar", "name": "Alaire", "name:es": "Alaire"}}, {"type": "node", "id": 4707360755, "lat": -34.5957765, "lon": -58.3846552, "tags": {"addr:city": "Ciudad Aut\u00f3noma de Buenos Aires", "addr:housenumber": "1234", "addr:postcode": "1059", "addr:street": "Avenida Santa Fe", "amenity": "bar", "cuisine": "argentinian;breakfast", "internet_access": "wlan", "name": "Santa Fe 1234", "opening_hours": "Mo-Su 06:00-03:00", "phone": "+54 11 4811-2356", "source": "Reconocimiento terrestre por Kaart 2016", "website": "http://santafe1234.com.ar"}}, {"type": "node", "id": 4708641289, "lat": -34.62586, "lon": -58.426785}, {"type": "node", "id": 4708641290, "lat": -34.6258685, "lon": -58.4268454}, {"type": "node", "id": 4708641291, "lat": -34.6259453, "lon": -58.4268296}, {"type": "node", "id": 4708641292, "lat": -34.6259587, "lon": -58.4268074}, {"type": "node", "id": 4708681591, "lat": -34.6192548, "lon": -58.4281822}, {"type": "node", "id": 4708681597, "lat": -34.6191516, "lon": -58.4281333}, {"type": "node", "id": 4708681598, "lat": -34.6192479, "lon": -58.428118}, {"type": "node", "id": 4708716448, "lat": -34.581892, "lon": -58.4416564, "tags": {"addr:city": "Ciudad Aut\u00f3noma de Buenos Aires", "addr:housenumber": "1588", "addr:postcode": "1414", "addr:street": "Ar\u00e9valo", "amenity": "bar", "name": "Cervecer\u00eda Nacional", "phone": "+54 11 4771-3383"}}, {"type": "node", "id": 4708716449, "lat": -34.5791179, "lon": -58.4365387, "tags": {"addr:city": "Ciudad Aut\u00f3noma de Buenos Aires", "addr:country": "AR", "addr:housenumber": "5901", "addr:postcode": "1414", "addr:street": "Nicaragua", "amenity": "bar", "contact:facebook": "https://www.facebook.com/elavalcerveceria/", "email": "elavalcerveceria@gmail.com", "name": "El Aval", "opening_hours": "Mo,We-Sa 18:00-01:00", "outdoor_seating": "yes", "phone": "+54 11 6574-5708"}}, {"type": "node", "id": 4708716450, "lat": -34.5773452, "lon": -58.4386687, "tags": {"addr:city": "Ciudad Aut\u00f3noma de Buenos Aires", "addr:country": "AR", "addr:housenumber": "2212", "addr:postcode": "1414", "addr:street": "Avenida Dorrego", "amenity": "bar", "contact:facebook": "https://www.facebook.com/tipsybsas/", "name": "Tipsy", "opening_hours": "Tu-Sa 18:00-24:00", "outdoor_seating": "yes", "phone": "+54 11 2090-0129"}}, {"type": "node", "id": 4708799765, "lat": -34.6002907, "lon": -58.3808389, "tags": {"addr:street": "Viamonte", "amenity": "bar", "name": "Vinoteca Bari", "source": "Reconocimiento terrestre por Kaart 2016"}}, {"type": "node", "id": 4708844222, "lat": -34.5998922, "lon": -58.3739989, "tags": {"amenity": "bar", "name": "Beer Conect"}}, {"type": "node", "id": 4709263868, "lat": -34.5920698, "lon": -58.4264239, "tags": {"addr:city": "Ciudad Aut\u00f3noma de Buenos Aires", "addr:street": "Avenida Ra\u00fal Scalabrini Ortiz", "amenity": "bar", "name": "Porto - Night Stadium", "source": "Reconocimiento terrestre por Kaart 2016"}}, {"type": "node", "id": 4709424716, "lat": -34.5876103, "lon": -58.4201527, "tags": {"addr:city": "Ciudad Aut\u00f3noma de Buenos Aires", "addr:street": "Avenida Ra\u00fal Scalabrini Ortiz", "amenity": "bar", "name": "Varela Varilita", "source": "Reconocimiento terrestre por Kaart 2016"}}, {"type": "node", "id": 4730100190, "lat": -34.6184038, "lon": -58.3744431, "tags": {"amenity": "bar", "name": "Gibraltar", "name:es": "Gibraltar"}}, {"type": "node", "id": 4736096331, "lat": -34.6045741, "lon": -58.3766452, "tags": {"amenity": "bar", "name": "Solera"}}, {"type": "node", "id": 4755559022, "lat": -34.5912128, "lon": -58.4328974, "tags": {"addr:housenumber": "4942", "addr:street": "Coronel Niceto Vega", "amenity": "bar", "name": "La Calle", "name:es": "La Calle"}}, {"type": "node", "id": 4792672921, "lat": -34.6085433, "lon": -58.382577, "tags": {"addr:housenumber": "1132", "addr:street": "Rivadavia", "amenity": "bar", "cuisine": "coffee_shop;friture;burger;pizza", "internet_access": "wlan", "name": "Unplug Bar", "name:en": "Unplug Bar", "name:es": "Unplug Bar", "opening_hours": "Mo-Su 18:00-05:00", "phone": "+54 11 4381-6876"}}, {"type": "node", "id": 4811041022, "lat": -34.5828205, "lon": -58.4387147, "tags": {"addr:housenumber": "1670", "addr:street": "\u00c1ngel Justiniano Carranza", "amenity": "bar", "name": "Hache"}}, {"type": "node", "id": 4880848726, "lat": -34.5780233, "lon": -58.437279, "tags": {"addr:city": "Ciudad Aut\u00f3noma de Buenos Aires", "addr:country": "AR", "addr:housenumber": "2030", "addr:postcode": "1414", "addr:street": "Ar\u00e9valo", "amenity": "bar", "contact:facebook": "https://www.facebook.com/uptown.ba/", "email": "info@uptownba.com", "name": "Uptown & The Bronx", "phone": "+54 11 2101-4897", "website": "http://www.uptownba.com/"}}, {"type": "node", "id": 4880874021, "lat": -34.5863664, "lon": -58.432059, "tags": {"amenity": "bar", "name:en": "J.W Bradley"}}, {"type": "node", "id": 4892635222, "lat": -34.6263128, "lon": -58.4406288, "tags": {"addr:housenumber": "901", "addr:street": "Avenida Pedro Goyena", "amenity": "bar", "name": "Belgica"}}, {"type": "node", "id": 4925055622, "lat": -34.5863269, "lon": -58.4320594, "tags": {"addr:housenumber": "1875", "addr:street": "Godoy Cruz", "amenity": "bar", "name": "J.W. Bradley", "name:en": "J.W. Bradley", "name:es": "J.W. Bradley"}}, {"type": "node", "id": 4934712021, "lat": -34.6185604, "lon": -58.3729457, "tags": {"addr:housenumber": "500", "addr:street": "Estados Unidos", "amenity": "bar", "name": "Chin Chin"}}, {"type": "node", "id": 4934855023, "lat": -34.587195, "lon": -58.4283115, "tags": {"addr:housenumber": "4821", "addr:street": "Costa Rica", "amenity": "bar", "name:en": "Victoria Brown"}}, {"type": "node", "id": 4942459487, "lat": -34.5788386, "lon": -58.4369109, "tags": {"addr:city": "Ciudad Aut\u00f3noma de Buenos Aires", "addr:country": "AR", "addr:housenumber": "5935", "addr:postcode": "1414", "addr:street": "Nicaragua", "amenity": "bar", "contact:facebook": "https://www.facebook.com/M-Street-Bar-1565770943481658/", "email": "reservas@mstreetbar.com.ar", "name": "M Street Bar", "opening_hours": "Mo-We 12:00-22:00; Th-Sa 12:00-23:45", "phone": "+54 11 4776-8602", "website": "http://www.mstreetbar.com.ar/"}}, {"type": "node", "id": 5025275021, "lat": -34.5949283, "lon": -58.4397343, "tags": {"addr:housenumber": "885", "addr:street": "Juan Ram\u00edrez de Velasco", "amenity": "bar", "cuisine": "burger;sandwich;breakfast;deli;diner;coffee_shop", "internet_access": "wlan", "name": "whoopies", "name:es": "whoopies"}}, {"type": "node", "id": 5067720934, "lat": -34.6009838, "lon": -58.3711812, "tags": {"addr:housenumber": "597", "addr:street": "25 de Mayo", "amenity": "bar", "name": "Bar La Cigale", "name:es": "Bar La Cigale"}}, {"type": "node", "id": 5067721032, "lat": -34.608212, "lon": -58.3787265, "tags": {"addr:housenumber": "878", "addr:street": "Avenida Rivadavia", "amenity": "bar", "name": "Cocoliche", "name:es": "Cocoliche"}}, {"type": "node", "id": 5107541022, "lat": -34.5828275, "lon": -58.4766781, "tags": {"amenity": "bar", "name": "Gamarra Cervecer\u00eda"}}, {"type": "node", "id": 5201104924, "lat": -34.598803, "lon": -58.3740889, "tags": {"amenity": "bar", "name": "La Barra"}}, {"type": "node", "id": 5204795121, "lat": -34.6327976, "lon": -58.5002672, "tags": {"amenity": "bar", "name": "Sabayon", "shop": "ice_cream"}}, {"type": "node", "id": 5212943521, "lat": -34.6260575, "lon": -58.4256611, "tags": {"addr:housenumber": "1002", "addr:postcode": "1234", "addr:street": "Mu\u00f1iz", "amenity": "bar", "cuisine": "burger;friture", "internet_access": "wlan", "name": "Big Pons", "opening_hours": "Tu-Su 17:00-00:30", "phone": "+54 11 2088-7043"}}, {"type": "node", "id": 5218627022, "lat": -34.5970519, "lon": -58.4308086, "tags": {"amenity": "bar", "name": "La Cava Jufre"}}, {"type": "node", "id": 5230413827, "lat": -34.6103908, "lon": -58.3776477, "tags": {"addr:housenumber": "178", "addr:postcode": "C1079AAD", "addr:street": "Piedras", "amenity": "bar", "name": "Viejo Alsina", "name:en": "Treffen Beer Bar", "opening_hours": "Mo-Fr 12:00-02:00; Sa 20:00-03:00", "phone": "+54 11 4343-1428", "website": "https://treffen.com.ar/"}}, {"type": "node", "id": 5230433121, "lat": -34.6014422, "lon": -58.3928504, "tags": {"addr:housenumber": "650", "addr:postcode": "C1022AAG", "addr:street": "Avenida Callao", "amenity": "bar", "name:en": "Patagonia Brewing Co."}}, {"type": "node", "id": 5246394293, "lat": -34.5917711, "lon": -58.3897646, "tags": {"amenity": "bar", "name": "Antares"}}, {"type": "node", "id": 5248771121, "lat": -34.5967947, "lon": -58.3917486, "tags": {"amenity": "bar", "name": "Pe\u00f1a Cervecer\u00eda"}}, {"type": "node", "id": 5274482739, "lat": -34.6448938, "lon": -58.5271837, "tags": {"amenity": "bar"}}, {"type": "node", "id": 5285249671, "lat": -34.559815, "lon": -58.4575673, "tags": {"addr:housenumber": "2340", "addr:street": "Olaz\u00e1bal", "amenity": "bar"}}, {"type": "node", "id": 5309558778, "lat": -34.5585796, "lon": -58.4578954, "tags": {"amenity": "bar", "name": "El Boliche de Roberto"}}, {"type": "node", "id": 5371286169, "lat": -34.5713339, "lon": -58.4995547}, {"type": "node", "id": 5371286170, "lat": -34.5712492, "lon": -58.4994316}, {"type": "node", "id": 5371286171, "lat": -34.571305, "lon": -58.4993886}, {"type": "node", "id": 5371286172, "lat": -34.5713914, "lon": -58.4995048}, {"type": "node", "id": 5379354672, "lat": -34.5855113, "lon": -58.4342957, "tags": {"amenity": "bar", "name": "Rosebar"}}, {"type": "node", "id": 5383418921, "lat": -34.6178075, "lon": -58.3729975, "tags": {"amenity": "bar", "name:fr": "El banco burger"}}, {"type": "node", "id": 5383419521, "lat": -34.6189144, "lon": -58.3715106, "tags": {"amenity": "bar", "name:fr": "Vitelli bar italien"}}, {"type": "node", "id": 5387131921, "lat": -34.5870743, "lon": -58.4295899, "tags": {"addr:housenumber": "1750", "addr:street": "Thames", "amenity": "bar", "name": "VOER", "name:en": "Voer"}}, {"type": "node", "id": 5397319181, "lat": -34.5894499, "lon": -58.4234314, "tags": {"amenity": "bar", "contact:twitter": "bierhofpalermo", "name": "Bierhof"}}, {"type": "node", "id": 5410557721, "lat": -34.6192982, "lon": -58.3727723, "tags": {"amenity": "bar", "name": "Hoboken"}}, {"type": "node", "id": 5416534093, "lat": -34.5946288, "lon": -58.4258806, "tags": {"addr:housenumber": "4354", "addr:street": "Jos\u00e9 Antonio Cabrera", "amenity": "bar", "delivery": "yes", "microbrewery": "yes", "name": "D\u00e1rsena Bar", "opening_hours": "We 18:00-24:00; Th-Sa 00:00-02:00,18:00-24:00; Su 00:00-02:00", "outdoor_seating": "yes", "takeaway": "yes"}}, {"type": "node", "id": 5417599021, "lat": -34.5854384, "lon": -58.4688681, "tags": {"addr:housenumber": "721", "addr:street": "Plaza", "amenity": "bar", "internet_access": "wlan", "name": "Galpon Plaza", "name:en": "Galpon Plaza", "name:es": "Galpon Plaza", "opening_hours": "Su-Th 18:00-12:00; Fr-Sa 18:00-02:00"}}, {"type": "node", "id": 5435193230, "lat": -34.5816062, "lon": -58.4393733, "tags": {"amenity": "bar", "name": "Trova Bar"}}, {"type": "node", "id": 5499279523, "lat": -34.5888895, "lon": -58.4325208, "tags": {"amenity": "bar", "name": "Parque Bar Botanico"}}, {"type": "node", "id": 5536748041, "lat": -34.617601, "lon": -58.3831913, "tags": {"addr:city": "Ciudad de Buenos Aires", "addr:housenumber": "1215", "addr:street": "Avenida Independencia", "amenity": "bar", "name": "Bonnie & Clyde", "outdoor_seating": "yes"}}, {"type": "node", "id": 5536952321, "lat": -34.5964919, "lon": -58.3789438, "tags": {"amenity": "bar", "name": "On Tap Craft Beer"}}, {"type": "node", "id": 5538975221, "lat": -34.5934793, "lon": -58.4236427, "tags": {"addr:housenumber": "4308", "addr:street": "Honduras", "amenity": "bar", "delivery": "yes", "name": "Clot", "opening_hours": "Mo-Th 17:00-01:00; Fr,Sa 17:00-03:00; Su 17:00-24:00", "outdoor_seating": "street", "takeaway": "yes"}}, {"type": "node", "id": 5596792555, "lat": -34.608253, "lon": -58.4376033, "tags": {"addr:street": "Leopoldo Marechal", "amenity": "bar", "name": "Cervecer\u00eda 11 25"}}, {"type": "node", "id": 5630561121, "lat": -34.6518428, "lon": -58.4610005, "tags": {"amenity": "bar", "internet_access": "wlan"}}, {"type": "node", "id": 5649666144, "lat": -34.5830981, "lon": -58.4338948, "tags": {"addr:housenumber": "5527", "addr:street": "Costa Rica", "amenity": "bar", "check_date": "2023-11-25", "dog": "yes", "internet_access": "wlan", "name": "On Tap", "opening_hours": "Mo-Th 18:00-24:30; Fr-Sa 18:00-03:00; Su off", "outdoor_seating": "yes", "payment:cash": "yes", "payment:credit_cards": "yes", "payment:debit_cards": "yes", "payment:mastercard": "yes", "payment:visa": "yes", "wheelchair": "limited"}}, {"type": "node", "id": 5743958321, "lat": -34.588441, "lon": -58.4341848, "tags": {"addr:housenumber": "5225", "addr:street": "Jos\u00e9 Antonio Cabrera", "amenity": "bar", "name": "1516 Cervecer\u00eda", "website": "http://www.1516cerveceria.com"}}, {"type": "node", "id": 5777057158, "lat": -34.5954918, "lon": -58.4209702, "tags": {"addr:housenumber": "3972", "addr:street": "Gorriti", "amenity": "bar", "name": "Seta Bar"}}, {"type": "node", "id": 5878638536, "lat": -34.5594401, "lon": -58.4660746, "tags": {"addr:city": "Ciudad Aut\u00f3noma de Buenos Aires", "addr:country": "AR", "addr:housenumber": "2704", "addr:postcode": "1428", "addr:street": "Avenida Cr\u00e1mer", "amenity": "bar", "contact:facebook": "https://www.facebook.com/laherenciadejuan/", "cuisine": "grill", "delivery": "yes", "drive_through": "no", "internet_access": "wlan", "internet_access:fee": "no", "name": "Malasangre", "opening_hours": "Tu-Su 12:00-16:00,20:00-24:00", "outdoor_seating": "yes", "phone": "+54 11 4544-6722", "takeaway": "yes", "website": "https://www.laherenciadejuan.com.ar/"}}, {"type": "node", "id": 5878638537, "lat": -34.5585085, "lon": -58.466827, "tags": {"addr:city": "Ciudad Aut\u00f3noma de Buenos Aires", "addr:country": "AR", "addr:housenumber": "2830", "addr:postcode": "1428", "addr:street": "Avenida Cr\u00e1mer", "amenity": "bar", "contact:facebook": "https://www.facebook.com/wunderbarargentina/", "contact:instagram": "https://www.instagram.com/wunderbar_arg/", "contact:twitter": "https://www.twitter.com/wunderbar_arg/", "drive_through": "no", "email": "hola@wunderbar.com.ar", "name": "Wunderbar", "opening_hours": "Tu-Su 19:00-02:00", "outdoor_seating": "yes", "phone": "+54 11 2133-7805", "website": "https://www.wunderbar.com.ar/"}}, {"type": "node", "id": 5886191485, "lat": -34.6171574, "lon": -58.429175, "tags": {"amenity": "bar", "name": "Chaco bar"}}, {"type": "node", "id": 5889036267, "lat": -34.5871757, "lon": -58.4326722, "tags": {"addr:housenumber": "5254", "addr:street": "Honduras", "amenity": "bar", "name": "Genk"}}, {"type": "node", "id": 5914762132, "lat": -34.60034, "lon": -58.4149298, "tags": {"addr:city": "Ciudad Aut\u00f3noma de Buenos Aires", "addr:housenumber": "835", "addr:postcode": "1174", "addr:street": "Billinghurst", "amenity": "bar", "name": "El Bar de Kowalski", "opening_hours": "Tu-Su 19:00-02:00", "outdoor_seating": "yes"}}, {"type": "node", "id": 5923963086, "lat": -34.602838, "lon": -58.4128118, "tags": {"addr:city": "Buenos Aires", "addr:housenumber": "557", "addr:postcode": "C1172ABK", "addr:street": "Gallo", "amenity": "bar", "name": "Casa Colombo"}}, {"type": "node", "id": 5962475086, "lat": -34.5843673, "lon": -58.442959, "tags": {"addr:housenumber": "5924", "addr:street": "Avenida Coronel Niceto Vega", "amenity": "bar", "internet_access": "wlan", "name": "Santos Vega Draught Bar", "website": "http://www.santos-vega.com"}}, {"type": "node", "id": 6010998386, "lat": -34.626795, "lon": -58.3721677, "tags": {"amenity": "bar", "name": "On Tap"}}, {"type": "node", "id": 6032148494, "lat": -34.6401482, "lon": -58.5225506, "tags": {"amenity": "bar"}}, {"type": "node", "id": 6033188086, "lat": -34.6147699, "lon": -58.3732397, "tags": {"amenity": "bar", "name": "malin head"}}, {"type": "node", "id": 6058970595, "lat": -34.5794801, "lon": -58.4513699, "tags": {"amenity": "bar", "name": "Strange Brewing"}}, {"type": "node", "id": 6067552485, "lat": -34.61925, "lon": -58.3729755, "tags": {"amenity": "bar", "name": "atom", "name:en": "atom", "name:es": "atom", "name:fr": "atom"}}, {"type": "node", "id": 6068511688, "lat": -34.580626, "lon": -58.4305, "tags": {"amenity": "bar", "name": "Humboldt 2266, 1A"}}, {"type": "node", "id": 6069037644, "lat": -34.6201915, "lon": -58.3717936, "tags": {"amenity": "bar", "name": "Funes Birrer\u00eda"}}, {"type": "node", "id": 6154684785, "lat": -34.5902653, "lon": -58.4307542, "tags": {"amenity": "bar", "name": "Growlers craft beer"}}, {"type": "node", "id": 6164339085, "lat": -34.5930043, "lon": -58.4052307, "tags": {"amenity": "bar", "name": "El Patio del Liceo"}}, {"type": "node", "id": 6166281485, "lat": -34.619431, "lon": -58.372765, "tags": {"addr:housenumber": "460", "addr:postcode": "1102", "addr:street": "Estados Unidos", "amenity": "bar", "email": "lalicoreriadelmercado@gmail.com", "internet_access": "wlan", "name": "La Licoreria Del Mercado", "opening_hours": "We-Su 00:00-24:00", "website": "https://www.instagram.com/lalicoreria_delmercado/?hl=es-la"}}, {"type": "node", "id": 6169515586, "lat": -34.5963014, "lon": -58.3782779, "tags": {"addr:housenumber": "779", "addr:street": "Marcelo T. de Alvear", "amenity": "bar", "check_date:currency:XBT": "2023-11-22", "currency:XBT": "yes", "name": "Baris Cerveca artesanal", "payment:lightning": "yes", "payment:onchain": "yes"}}, {"type": "node", "id": 6169515587, "lat": -34.5889708, "lon": -58.4116982, "tags": {"addr:housenumber": "2067", "addr:street": "Anasagasti", "amenity": "bar", "name": "Anasagasti Bar", "website": "http://www.anasagasti.com.ar"}}, {"type": "node", "id": 6171090755, "lat": -34.5737994, "lon": -58.4740981, "tags": {"addr:city": "Ciudad Aut\u00f3noma de Buenos Aires", "addr:country": "AR", "addr:housenumber": "1995", "addr:postcode": "1430", "addr:street": "Donado", "amenity": "bar", "contact:facebook": "https://www.facebook.com/blacksamok/", "contact:instagram": "https://www.instagram.com/blacksamok/", "delivery": "no", "drive_through": "no", "email": "black.sam.cerveceria@gmail.com", "name": "Black Sam Bellamy", "opening_hours": "Tu-Th 18:00-03:00; Fr 18:00-04:00; Sa,Su 11:00-16:00,18:00-04:00", "outdoor_seating": "yes", "phone": "+54 11 4022-7655", "takeaway": "yes"}}, {"type": "node", "id": 6183521385, "lat": -34.590181, "lon": -58.4203554, "tags": {"amenity": "bar", "name": "La Birreria"}}, {"type": "node", "id": 6199383486, "lat": -34.6095837, "lon": -58.3802871, "tags": {"addr:housenumber": "947", "addr:street": "Hip\u00f3lito Yrigoyen", "amenity": "bar", "name": "Club Dorado"}}, {"type": "node", "id": 6221551687, "lat": -34.5885394, "lon": -58.3957397, "tags": {"amenity": "bar", "internet_access": "wlan", "name": "Cilento"}}, {"type": "node", "id": 6261845610, "lat": -34.589079, "lon": -58.4266579, "tags": {"addr:housenumber": "1743", "addr:street": "Armenia", "amenity": "bar", "name": "The Hole bar"}}, {"type": "node", "id": 6262992254, "lat": -34.6131814, "lon": -58.436035, "tags": {"addr:housenumber": "399", "addr:street": "Avellaneda", "amenity": "bar", "description": "bar cervezer\u00eda", "name": "Bellagamba", "phone": "+54 11 4860-3270", "website": "https://www.facebook.com/Bellagamba-195069347537556/"}}, {"type": "node", "id": 6264969985, "lat": -34.6095506, "lon": -58.3847765, "tags": {"amenity": "bar", "name": "La Embajada", "wikidata": "Q56826833", "wikimedia_commons": "Category:Bar La Embajada"}}, {"type": "node", "id": 6270929844, "lat": -34.6206698, "lon": -58.3723715}, {"type": "node", "id": 6270929845, "lat": -34.6205751, "lon": -58.3723771}, {"type": "node", "id": 6275372886, "lat": -34.6070477, "lon": -58.4186119, "tags": {"addr:housenumber": "331", "addr:street": "Bulnes", "amenity": "bar", "description": "Food, drink, live tango music.", "name": "El Boliche de Roberto", "opening_hours": "Mo-Th, Su 18:00-01:00; Fr, Sa 19:00-02:00", "website": "https://instagram.com/bolichederoberto_/"}}, {"type": "node", "id": 6284681401, "lat": -34.6265734, "lon": -58.3717049, "tags": {"amenity": "bar", "name:en": "Napoles"}}, {"type": "node", "id": 6306546952, "lat": -34.583392, "lon": -58.4425806}, {"type": "node", "id": 6306546953, "lat": -34.5833347, "lon": -58.4425148}, {"type": "node", "id": 6306546954, "lat": -34.5833072, "lon": -58.442683}, {"type": "node", "id": 6307053282, "lat": -34.5817179, "lon": -58.4398277}, {"type": "node", "id": 6307053284, "lat": -34.5818028, "lon": -58.4397186}, {"type": "node", "id": 6308444667, "lat": -34.5831699, "lon": -58.442853}, {"type": "node", "id": 6308444669, "lat": -34.5831168, "lon": -58.442792}, {"type": "node", "id": 6309217058, "lat": -34.581603, "lon": -58.4396968}, {"type": "node", "id": 6309217059, "lat": -34.5816888, "lon": -58.4395888}, {"type": "node", "id": 6320068385, "lat": -34.5967863, "lon": -58.3989051, "tags": {"amenity": "bar", "name": "Zoom"}}, {"type": "node", "id": 6324439487, "lat": -34.6010404, "lon": -58.3999012, "tags": {"amenity": "bar", "brewery": "yes", "name": "Bar Patagonia"}}, {"type": "node", "id": 6358499689, "lat": -34.5897727, "lon": -58.4316917, "tags": {"amenity": "bar", "name": "Marlon"}}, {"type": "node", "id": 6422093285, "lat": -34.5873865, "lon": -58.4336595, "tags": {"addr:housenumber": "1715", "addr:street": "Godoy Cruz", "amenity": "bar", "name": "Levitar", "opening_hours": "Th-Sa 19:00-05:00"}}, {"type": "node", "id": 6423481585, "lat": -34.5885308, "lon": -58.4306544, "tags": {"addr:street": "Honduras", "amenity": "bar", "name": "El Club"}}, {"type": "node", "id": 6423769286, "lat": -34.5702294, "lon": -58.4214601, "tags": {"amenity": "bar", "name": "Avant Garten"}}, {"type": "node", "id": 6423798185, "lat": -34.5886554, "lon": -58.4280761, "tags": {"amenity": "bar", "name": "La Chopper\u00eda de Palermo"}}, {"type": "node", "id": 6477305185, "lat": -34.6186791, "lon": -58.3708556, "tags": {"addr:street": "Estados Unidos", "amenity": "bar", "name": "Berlina Bunker"}}, {"type": "node", "id": 6477305186, "lat": -34.6074785, "lon": -58.3663042, "tags": {"addr:street": "Juana Manuela Gorriti", "amenity": "bar", "name": "Temple"}}, {"type": "node", "id": 6525724185, "lat": -34.5880924, "lon": -58.4015285, "tags": {"amenity": "bar", "name": "The little bar Recoleta"}}, {"type": "node", "id": 6547896587, "lat": -34.5676879, "lon": -58.4473472, "tags": {"amenity": "bar", "name": "Obligado"}}, {"type": "node", "id": 6570226685, "lat": -34.6174969, "lon": -58.373159, "tags": {"addr:housenumber": "825", "addr:street": "Bol\u00edvar", "amenity": "bar", "name": "VALHALLA Bar Vikingo", "opening_hours": "Tu-Su 12:00-00:00", "phone": "+54 11 4300-7901"}}, {"type": "node", "id": 6601227885, "lat": -34.5537448, "lon": -58.4647712, "tags": {"addr:housenumber": "2424", "addr:street": "Iber\u00e1", "amenity": "bar", "name": "Niji", "name:ja": "\u8679", "opening_hours": "Mo-Sa 18:00-22:00", "phone": "+54 11 4544-1850"}}, {"type": "node", "id": 6661754985, "lat": -34.588933, "lon": -58.4299282, "tags": {"amenity": "bar", "internet_access": "wlan", "name": "Clara"}}, {"type": "node", "id": 6697709586, "lat": -34.5883358, "lon": -58.4149934, "tags": {"addr:housenumber": "1884", "addr:postcode": "C1425DEP", "addr:street": "Jer\u00f3nimo Salguero", "amenity": "bar", "name": "Thelonious Club", "opening_hours": "We-Th 21:00-01:00; Fr-Sa 21:00-03:00"}}, {"type": "node", "id": 6764306197, "lat": -34.5885246, "lon": -58.4326369, "tags": {"amenity": "bar", "name": "Pain et Vin"}}, {"type": "node", "id": 6863797286, "lat": -34.5941489, "lon": -58.42417, "tags": {"addr:housenumber": "4295", "addr:street": "Gorriti", "amenity": "bar", "check_date": "2023-11-28", "contact:instagram": "https://www.instagram.com/desarmaderobar", "delivery": "yes", "dog": "yes", "name": "Desarmadero Bar", "name:en": "Desarmadero Bar", "opening_hours": "Mo,Tu 12:00-01:00; We,Th 12:00-02:00; Fr,Sa 12:00-03:00; Su 12:00-24:00", "outdoor_seating": "yes", "payment:cash": "yes", "payment:credit_cards": "yes", "payment:debit_cards": "yes", "payment:mastercard": "yes", "payment:visa": "yes", "phone": "+54 9 11 6737 6903", "takeaway": "yes", "website": "https://www.desarmadero.com.ar/"}}, {"type": "node", "id": 6863797287, "lat": -34.5929012, "lon": -58.3896162, "tags": {"addr:housenumber": "1444", "addr:street": "Montevideo", "amenity": "bar", "name": "Wine makers"}}, {"type": "node", "id": 6863797288, "lat": -34.590078, "lon": -58.4320042, "tags": {"addr:housenumber": "4977", "addr:street": "Jos\u00e9 Antonio Cabrera", "amenity": "bar", "name": "Doc bar de vino"}}, {"type": "node", "id": 6863797290, "lat": -34.5925953, "lon": -58.4341519, "tags": {"addr:housenumber": "1149", "addr:street": "Gurruchaga", "amenity": "bar", "name": "Vico wine bar"}}, {"type": "node", "id": 6863805689, "lat": -34.5872446, "lon": -58.4322036, "tags": {"addr:housenumber": "5207", "addr:street": "Honduras", "amenity": "bar", "name": "Boticario"}}, {"type": "node", "id": 6863805690, "lat": -34.5853846, "lon": -58.4450012, "tags": {"addr:housenumber": "1409", "addr:street": "Avenida Dorrego", "amenity": "bar", "name": "Verm\u00fa la fuerza"}}, {"type": "node", "id": 6863805691, "lat": -34.5904337, "lon": -58.4257309, "tags": {"addr:housenumber": "4580", "addr:street": "El Salvador", "amenity": "bar", "name": "Cuervo caf\u00e9"}}, {"type": "node", "id": 6863805692, "lat": -34.6172523, "lon": -58.4303653, "tags": {"addr:city": "Ciudad Aut\u00f3noma de Buenos Aires", "addr:housenumber": "99", "addr:postcode": "C1424BRA", "addr:street": "Rep\u00fablica de Indonesia", "amenity": "bar", "name": "La esquina del Vino y la Birra", "name:en": "La esquina del Vino y la Birra", "name:es": "La esquina del Vino y la Birra", "phone": "+54 11 4400-7016"}}, {"type": "node", "id": 6863868085, "lat": -34.5909632, "lon": -58.3867987, "tags": {"addr:housenumber": "188", "addr:street": "Presidente Quintana", "amenity": "bar", "name": "Bar", "name:en": "Presidente Bar", "name:es": "Presidente Bar", "opening_hours": "Tu 20:00-02:00; We 20:00-02:30; Th 20:00-03:00; Fr-Sa 20:00-04:00"}}, {"type": "node", "id": 6927334732, "lat": -34.6098431, "lon": -58.3749938, "tags": {"addr:city": "Ciudad Aut\u00f3noma de Buenos Aires", "addr:housenumber": "159", "addr:postcode": "C1067AAC", "addr:street": "Per\u00fa", "amenity": "bar", "brewery": "yes", "contact:instagram": "https://www.instagram.com/doroitalianbar/", "contact:phone": "+54 11 5052-0381", "name": "D'Oro Italian Bar", "opening_hours": "Mo-Fr 07:00-23:30", "outdoor_seating": "yes", "start_date": "1999", "website": "https://doroitalianbar.com/"}}, {"type": "node", "id": 6960818185, "lat": -34.5472256, "lon": -58.4642294, "tags": {"addr:housenumber": "3579", "addr:street": "O'Higgins", "amenity": "bar", "name": "Mauer"}}, {"type": "node", "id": 6978474485, "lat": -34.5992922, "lon": -58.4087401, "tags": {"addr:housenumber": "806", "addr:street": "Tom\u00e1s Manuel de Anchorena", "amenity": "bar", "name": "Bar Roma"}}, {"type": "node", "id": 6992191189, "lat": -34.5901615, "lon": -58.4302107, "tags": {"amenity": "bar", "name:en": "70 30"}}, {"type": "node", "id": 7022808085, "lat": -34.6008945, "lon": -58.4176685, "tags": {"amenity": "bar", "name": "imaginario Cultural"}}, {"type": "node", "id": 7022831886, "lat": -34.6023846, "lon": -58.413615, "tags": {"addr:housenumber": "3460", "addr:postcode": "1192", "addr:street": "Guardia Vieja", "amenity": "bar", "name": "Le Troquet de Henry", "phone": "+54 11 5141-1382"}}, {"type": "node", "id": 7039581185, "lat": -34.5929789, "lon": -58.4301611, "tags": {"amenity": "bar", "name": "Chaval"}}, {"type": "node", "id": 7040022288, "lat": -34.588244, "lon": -58.4507502, "tags": {"addr:housenumber": "4081", "addr:street": "Avenida Jorge Newbery", "amenity": "restaurant", "name": "Donnet"}}, {"type": "node", "id": 7040031288, "lat": -34.5869083, "lon": -58.4504513, "tags": {"addr:housenumber": "412", "addr:street": "Guevara", "amenity": "bar", "name": "Central de Whisky"}}, {"type": "node", "id": 7042339285, "lat": -34.5859426, "lon": -58.4499184, "tags": {"addr:housenumber": "3801", "addr:street": "Avenida Jorge Newbery", "amenity": "bar", "name": "Lutero Bar"}}, {"type": "node", "id": 7042580486, "lat": -34.5866691, "lon": -58.4502428, "tags": {"amenity": "bar", "name": "Sif\u00f3n"}}, {"type": "node", "id": 7053360785, "lat": -34.6195409, "lon": -58.3727163, "tags": {"addr:street": "Carlos Calvo", "amenity": "bar", "cuisine": "burger;hot_dog", "internet_access": "wlan", "name": "MOLA"}}, {"type": "node", "id": 7108269686, "lat": -34.6046799, "lon": -58.4220715, "tags": {"amenity": "bar", "name": "Tango"}}, {"type": "node", "id": 7111373185, "lat": -34.6032827, "lon": -58.3705371, "tags": {"addr:housenumber": "222", "addr:street": "Avenida Corrientes", "amenity": "bar", "name": "Trade Sky Bar"}}, {"type": "node", "id": 7111383485, "lat": -34.5848739, "lon": -58.4262029, "tags": {"addr:housenumber": "4899", "addr:street": "Guatemala", "amenity": "bar", "name": "Tres Monos"}}, {"type": "node", "id": 7149358478, "lat": -34.6145758, "lon": -58.4014656, "tags": {"amenity": "bar", "name": "Imperio"}}, {"type": "node", "id": 7149362054, "lat": -34.6011226, "lon": -58.397187, "tags": {"amenity": "bar", "name": "Novo"}}, {"type": "node", "id": 7167243430, "lat": -34.558668, "lon": -58.4489098, "tags": {"amenity": "bar", "name": "Bar Helado"}}, {"type": "node", "id": 7215487985, "lat": -34.6019501, "lon": -58.4152084, "tags": {"addr:housenumber": "699", "addr:postcode": "C1174ABK", "addr:street": "Billinghurst", "amenity": "bar", "internet_access": "wlan", "name": "Guarda la vieja", "opening_hours": "Sa-Th 18:00-02:00; Fr 18:00-04:00", "phone": "+54 11 4863-7923"}}, {"type": "node", "id": 7233879685, "lat": -34.6200209, "lon": -58.3741416, "tags": {"amenity": "bar", "name:en": "The Old Viking"}}, {"type": "node", "id": 7741865128, "lat": -34.6091179, "lon": -58.5168346, "tags": {"amenity": "bar", "name": "Garden Bar"}}, {"type": "node", "id": 7770657099, "lat": -34.6115351, "lon": -58.520673, "tags": {"amenity": "bar", "name": "La Birra Bar"}}, {"type": "node", "id": 7805382056, "lat": -34.6091975, "lon": -58.5175056, "tags": {"amenity": "bar", "name": "Bar Colage"}}, {"type": "node", "id": 7940249677, "lat": -34.5965429, "lon": -58.4974147, "tags": {"amenity": "bar", "name": "Trapabar"}}, {"type": "node", "id": 7967775139, "lat": -34.611318, "lon": -58.5203998, "tags": {"amenity": "bar"}}, {"type": "node", "id": 8094634168, "lat": -34.6387224, "lon": -58.5290169, "tags": {"amenity": "bar"}}, {"type": "node", "id": 8192202159, "lat": -34.6329475, "lon": -58.5190258}, {"type": "node", "id": 8192202160, "lat": -34.632929, "lon": -58.5190114}, {"type": "node", "id": 8192202161, "lat": -34.6328261, "lon": -58.519122}, {"type": "node", "id": 8192202162, "lat": -34.632772, "lon": -58.519059}, {"type": "node", "id": 8192202166, "lat": -34.6329459, "lon": -58.5191088}, {"type": "node", "id": 8192207870, "lat": -34.6327891, "lon": -58.519126}, {"type": "node", "id": 8225674170, "lat": -34.5911876, "lon": -58.4279484, "tags": {"addr:housenumber": "1510", "addr:street": "Malabia", "amenity": "bar", "name": "Boulangerie"}}, {"type": "node", "id": 8225676843, "lat": -34.5914357, "lon": -58.428221, "tags": {"addr:housenumber": "1498", "addr:street": "Malabia", "amenity": "bar", "name": "Viavenito"}}, {"type": "node", "id": 8365886617, "lat": -34.6146863, "lon": -58.4172381, "tags": {"amenity": "bar"}}, {"type": "node", "id": 8385359664, "lat": -34.573075, "lon": -58.4486488, "tags": {"addr:city": "Ciudad Aut\u00f3noma de Buenos Aires", "addr:housenumber": "824", "addr:postcode": "1426", "addr:street": "Cr\u00e1mer", "amenity": "bar", "name": "Ruda Bar", "phone": "+54 9 11 5638 4016"}}, {"type": "node", "id": 8396192117, "lat": -34.5872073, "lon": -58.4465742, "tags": {"addr:housenumber": "91", "addr:street": "Fraga", "amenity": "bar", "name": "Morbx", "opening_hours": "Mo-Sa 17:00-01:00"}}, {"type": "node", "id": 8825937451, "lat": -34.6385563, "lon": -58.5171794}, {"type": "node", "id": 8984372204, "lat": -34.6215684, "lon": -58.4014718, "tags": {"amenity": "bar", "name": "Al Azar"}}, {"type": "node", "id": 9005264260, "lat": -34.6164283, "lon": -58.4010788, "tags": {"amenity": "bar", "name": "Noris"}}, {"type": "node", "id": 9096648447, "lat": -34.5595961, "lon": -58.4434961, "tags": {"addr:city": "Ciudad Aut\u00f3noma de Buenos Aires", "addr:housenumber": "1717", "addr:postcode": "1426", "addr:street": "Migueletes", "amenity": "bar", "name": "Mala Santa"}}, {"type": "node", "id": 9227563319, "lat": -34.5898161, "lon": -58.382107, "tags": {"addr:housenumber": "1541", "addr:street": "Cerrito", "amenity": "bar", "name": "Piba"}}, {"type": "node", "id": 9307756781, "lat": -34.5586431, "lon": -58.4489565, "tags": {"amenity": "bar", "name": "Copet\u00edn"}}, {"type": "node", "id": 9328105789, "lat": -34.5679992, "lon": -58.4926711, "tags": {"addr:city": "Ciudad Aut\u00f3noma de Buenos Aires", "addr:housenumber": "5257", "addr:postcode": "C1431", "addr:street": "Iber\u00e1", "amenity": "bar", "brewery": "no", "check_date": "2023-10-20", "internet_access": "wlan", "internet_access:fee": "customers", "name": "Bar Ping Pong", "opening_hours": "Mo-Fr 09:00-23:00; Sa 09:00-21:00", "outdoor_seating": "yes", "payment:cash": "yes", "payment:credit_cards": "yes", "payment:debit_cards": "yes", "payment:mastercard": "yes", "payment:visa": "yes", "phone": "+54 11 5876-7333", "sport": "table_tennis", "website": "https://www.nteeventos.com.ar/ping-pong-eventos"}}, {"type": "node", "id": 9377965339, "lat": -34.5659522, "lon": -58.488113, "tags": {"amenity": "bar", "name": "El Colectivo"}}, {"type": "node", "id": 9380718417, "lat": -34.6044232, "lon": -58.4836536, "tags": {"amenity": "bar", "name": "Varsovia"}}, {"type": "node", "id": 9473074753, "lat": -34.5585654, "lon": -58.4491055, "tags": {"amenity": "bar", "name": "Chintoneria"}}, {"type": "node", "id": 9536092104, "lat": -34.601227, "lon": -58.4079832, "tags": {"amenity": "bar", "name": "Lucky"}}, {"type": "node", "id": 9536096525, "lat": -34.6019266, "lon": -58.4079508, "tags": {"amenity": "bar", "name": "Tano Cabron"}}, {"type": "node", "id": 9548541621, "lat": -34.5888041, "lon": -58.3923138, "tags": {"addr:housenumber": "1761", "addr:street": "Jun\u00edn", "amenity": "bar", "name": "Bartola", "name:es": "Bartola Craft"}}, {"type": "node", "id": 9548541623, "lat": -34.5833206, "lon": -58.4374582, "tags": {"addr:housenumber": "5702", "addr:street": "Honduras", "amenity": "bar", "name": "Pe\u00f1\u00f3n del aguila"}}, {"type": "node", "id": 9548541627, "lat": -34.5875206, "lon": -58.395329, "tags": {"addr:street": "Vicente L\u00f3pez", "amenity": "bar", "name": "Drafter's"}}, {"type": "node", "id": 9548541919, "lat": -34.5707472, "lon": -58.4219257, "tags": {"amenity": "bar", "name": "PLTZ"}}, {"type": "node", "id": 9548542017, "lat": -34.5811304, "lon": -58.4280608, "tags": {"amenity": "bar", "name": "Maldini"}}, {"type": "node", "id": 9759267619, "lat": -34.5862132, "lon": -58.426254, "tags": {"amenity": "bar", "name": "Backroom Bar"}}, {"type": "node", "id": 9762850719, "lat": -34.5948058, "lon": -58.4235252, "tags": {"amenity": "bar", "check_date": "2023-11-30", "contact:instagram": "https://www.instagram.com/benaventebar_", "dog": "yes", "name": "Benavente", "opening_hours": "We-Sa 20:00-00:00; Su 20:00-24:00", "outdoor_seating": "sidewalk"}}, {"type": "node", "id": 9879773519, "lat": -34.6079871, "lon": -58.4720724, "tags": {"amenity": "bar", "name": "Gavilan"}}, {"type": "node", "id": 9968343217, "lat": -34.6159371, "lon": -58.3714452, "tags": {"amenity": "bar"}}, {"type": "node", "id": 9981821532, "lat": -34.6030192, "lon": -58.3826511, "tags": {"addr:housenumber": "1129", "amenity": "bar", "name": "El Bar de Julio"}}, {"type": "node", "id": 9981821703, "lat": -34.6063755, "lon": -58.3866228, "tags": {"addr:housenumber": "1417", "amenity": "bar", "name": "Bar Amigos"}}, {"type": "node", "id": 9981830214, "lat": -34.6062525, "lon": -58.3893893, "tags": {"amenity": "bar", "name": "Berlin"}}, {"type": "node", "id": 9981831249, "lat": -34.6055068, "lon": -58.3885832, "tags": {"addr:housenumber": "1546", "amenity": "bar", "name": "Bs. As. City"}}, {"type": "node", "id": 10002860517, "lat": -34.560516, "lon": -58.4606924, "tags": {"amenity": "bar", "name": "Hormiga Negra", "outdoor_seating": "yes", "survey:date": "2022-09-05", "website": "https://www.hormiganegra.com.ar/"}}, {"type": "node", "id": 10003264717, "lat": -34.5872616, "lon": -58.4383209, "tags": {"amenity": "bar", "delivery": "no", "name": "Niceto Bar", "survey:date": "2022-09-05", "takeaway": "no"}}, {"type": "node", "id": 10110154517, "lat": -34.5833358, "lon": -58.4136773, "tags": {"addr:housenumber": "3626", "addr:street": "Juncal", "amenity": "bar", "cuisine": "argentinian", "name": "Braus"}}, {"type": "node", "id": 10110324917, "lat": -34.5895126, "lon": -58.4292123, "tags": {"amenity": "bar", "name": "Antares"}}, {"type": "node", "id": 10167956427, "lat": -34.555318, "lon": -58.4697228, "tags": {"amenity": "bar", "name": "Malparido"}}, {"type": "node", "id": 10176901185, "lat": -34.6144813, "lon": -58.4379307, "tags": {"addr:housenumber": "380", "addr:street": "Avenida Acoyte", "amenity": "bar", "name": "IPA Cervecer\u00eda", "phone": "+5491140454115", "website": "https://cerveceriaipa.com.ar/qr/"}}, {"type": "node", "id": 10251514099, "lat": -34.5880906, "lon": -58.4224233, "tags": {"addr:city": "Ciudad Aut\u00f3noma de Buenos Aires", "addr:housenumber": "4470", "addr:postcode": "C1425BUH", "addr:street": "Guatemala", "air_conditioning": "yes", "amenity": "bar", "brewery": "envasada_en_lata_o_botella", "description": "Tienda d Bebidas Cervezas Artesanales  Vinos Sidra artesanal Vermu Artesanal", "email": "unafrescatienda@gmail.com", "fixme": "brewery", "internet_access": "wlan", "microbrewery": "yes", "min_age": "18", "name": "Una Fresca Tienda de Bebidas", "opening_hours": "Mo-Th 13:00-20:00; Fr-Sa 13:00-22:00", "outdoor_seating": "yes", "payment:cash": "yes", "payment:contactless": "yes", "payment:credit_cards": "yes", "payment:debit_cards": "yes", "phone": "+54 9 11 3826-8947", "website": "https://www.unafresca.com.ar"}}, {"type": "node", "id": 10575653541, "lat": -34.590336, "lon": -58.4288565, "tags": {"amenity": "bar", "name": "Cochinchina"}}, {"type": "node", "id": 10585600329, "lat": -34.6017422, "lon": -58.4049502, "tags": {"amenity": "bar", "name": "Kitchen Bar"}}, {"type": "node", "id": 10597022505, "lat": -34.5794193, "lon": -58.4153488, "tags": {"amenity": "bar", "check_date:currency:XBT": "2023-11-25", "currency:XBT": "yes", "name": "Oslo", "payment:lightning": "yes", "payment:onchain": "yes"}}, {"type": "node", "id": 10676547694, "lat": -34.6080669, "lon": -58.4894968, "tags": {"addr:city": "Ciudad Aut\u00f3noma de Buenos Aires", "addr:housenumber": "2373", "addr:postcode": "1417", "addr:street": "Cuenca", "amenity": "bar", "image": "https://salaslpm.com/imagenes/white/3.jpg", "internet_access": "wlan", "name": "Salas LPM", "opening_hours": "Mo-Sa 10:00-18:00", "website": "https://salaslpm.com", "wheelchair": "yes"}}, {"type": "node", "id": 10686642205, "lat": -34.6031782, "lon": -58.4130045, "tags": {"addr:housenumber": "3411", "addr:street": "Humahuaca", "amenity": "bar", "name": "El Destino"}}, {"type": "node", "id": 10695462306, "lat": -34.5883774, "lon": -58.4328148, "tags": {"amenity": "bar", "name": "Rey de Copas"}}, {"type": "node", "id": 10713305605, "lat": -34.6056978, "lon": -58.364849, "tags": {"amenity": "bar", "name": "Pe\u00f1on del Aguila"}}, {"type": "node", "id": 10724765989, "lat": -34.6121916, "lon": -58.3860645, "tags": {"amenity": "bar", "name": "Federal Bar"}}, {"type": "node", "id": 10732786223, "lat": -34.5423124, "lon": -58.4737204, "tags": {"addr:city": "Buenos Aires", "addr:housenumber": "2455", "addr:postcode": "1429", "addr:street": "Arias", "amenity": "bar", "name": "Cocktail 80"}}, {"type": "node", "id": 10810419995, "lat": -34.5572897, "lon": -58.4440577, "tags": {"amenity": "bar", "name": "Barrio del Loco"}}, {"type": "node", "id": 10817175805, "lat": -34.6050592, "lon": -58.3896712, "tags": {"amenity": "bar", "name": "Temple"}}, {"type": "node", "id": 10830992605, "lat": -34.5697926, "lon": -58.4243904, "tags": {"amenity": "bar", "name:nl": "Rabieta"}}, {"type": "node", "id": 10880094387, "lat": -34.5574874, "lon": -58.4510672, "tags": {"amenity": "bar", "name": "Pib\u00e4", "outdoor_seating": "pedestrian_zone", "survey:date": "2023-06-09"}}, {"type": "node", "id": 10917544805, "lat": -34.6029103, "lon": -58.3807892, "tags": {"amenity": "bar", "internet_access": "wlan", "name": "Keller Bier", "name:en": "Espa\u00f1ol"}}, {"type": "node", "id": 10966689605, "lat": -34.6073798, "lon": -58.3663089, "tags": {"amenity": "bar", "check_date:currency:XBT": "2023-10-13", "currency:XBT": "yes", "name": "Rodizinho", "payment:lightning": "yes", "payment:onchain": "yes"}}, {"type": "node", "id": 11055542005, "lat": -34.5975311, "lon": -58.4348733, "tags": {"addr:housenumber": "659", "addr:street": "Avenida Ra\u00fal Scalabrini Ortiz", "amenity": "bar", "check_date:currency:XBT": "2023-11-25", "currency:XBT": "yes", "name": "Bucarest", "payment:lightning": "yes", "payment:onchain": "yes"}}, {"type": "node", "id": 11074438896, "lat": -34.5572128, "lon": -58.451757, "tags": {"amenity": "bar", "name": "Cruz Vinos"}}, {"type": "node", "id": 11106204867, "lat": -34.6101679, "lon": -58.3804275, "tags": {"amenity": "bar", "name": "El Espa\u00f1olito"}}, {"type": "node", "id": 11125964060, "lat": -34.5986727, "lon": -58.4366115, "tags": {"amenity": "bar", "name": "Crespo Bar"}}, {"type": "node", "id": 11184953967, "lat": -34.5871901, "lon": -58.4328773}, {"type": "node", "id": 11184953968, "lat": -34.5872446, "lon": -58.4329371}, {"type": "node", "id": 11184953969, "lat": -34.5870586, "lon": -58.4331138}, {"type": "node", "id": 11184954002, "lat": -34.5866131, "lon": -58.4330264}, {"type": "node", "id": 11184954003, "lat": -34.5865029, "lon": -58.4329008}, {"type": "node", "id": 11184954004, "lat": -34.5866541, "lon": -58.4329745}, {"type": "node", "id": 11184954005, "lat": -34.5865618, "lon": -58.4328474}, {"type": "node", "id": 11187169474, "lat": -34.585953, "lon": -58.4299748}, {"type": "node", "id": 11187169475, "lat": -34.5859952, "lon": -58.4300344}, {"type": "node", "id": 11187169476, "lat": -34.5859966, "lon": -58.4300878}, {"type": "node", "id": 11187169477, "lat": -34.5859372, "lon": -58.4301766}, {"type": "node", "id": 11187169478, "lat": -34.585882, "lon": -58.430184}, {"type": "node", "id": 11187169479, "lat": -34.5858282, "lon": -58.4301357}, {"type": "node", "id": 11195203861, "lat": -34.5587073, "lon": -58.4491061, "tags": {"amenity": "bar", "level": "0", "name": "Krill", "outdoor_seating": "yes"}}, {"type": "node", "id": 11260034566, "lat": -34.6107338, "lon": -58.3636798, "tags": {"amenity": "bar", "check_date:currency:XBT": "2023-10-13", "currency:XBT": "yes", "name": "PublicBar", "payment:lightning": "yes", "payment:onchain": "yes"}}, {"type": "node", "id": 11262697238, "lat": -34.5811936, "lon": -58.4280938, "tags": {"amenity": "bar", "name": "Aribau"}}, {"type": "node", "id": 11292288051, "lat": -34.5567561, "lon": -58.4523737, "tags": {"amenity": "bar", "name": "Moretti"}}, {"type": "node", "id": 11350739451, "lat": -34.6063411, "lon": -58.3641368, "tags": {"amenity": "bar", "check_date:currency:XBT": "2023-11-15", "currency:XBT": "yes", "name": "Negroni Bistro & Sushi Bar", "payment:lightning": "yes", "payment:onchain": "yes"}}, {"type": "node", "id": 11374555269, "lat": -34.5938268, "lon": -58.4432108, "tags": {"addr:housenumber": "2441", "addr:street": "Avenida Juan Bautista Justo", "amenity": "bar", "name": "Basta Callej\u00f3n"}}, {"type": "node", "id": 11374843858, "lat": -34.5864553, "lon": -58.4359136, "tags": {"amenity": "bar", "check_date:currency:XBT": "2023-11-25", "clothes": "sports", "currency:XBT": "yes", "name": "Aura", "payment:lightning": "yes", "payment:onchain": "yes"}}, {"type": "node", "id": 11374843860, "lat": -34.5845599, "lon": -58.4366418, "tags": {"amenity": "bar", "check_date:currency:XBT": "2023-11-25", "clothes": "sports", "currency:XBT": "yes", "name": "Famous", "payment:lightning": "yes", "payment:onchain": "yes"}}, {"type": "node", "id": 11374867037, "lat": -34.5880116, "lon": -58.4225217, "tags": {"amenity": "bar", "check_date:currency:XBT": "2023-11-25", "currency:XBT": "yes", "name": "Vinoteca", "payment:lightning": "yes", "payment:onchain": "yes"}}, {"type": "node", "id": 11374906591, "lat": -34.5577775, "lon": -58.4497434, "tags": {"amenity": "bar", "check_date:currency:XBT": "2023-11-25", "currency:XBT": "yes", "name": "Puerta Uno Bar", "payment:lightning": "yes", "payment:onchain": "yes"}}, {"type": "node", "id": 11414670710, "lat": -34.6054786, "lon": -58.3905451, "tags": {"addr:housenumber": "1685", "amenity": "bar", "name": "New Fama"}}, {"type": "node", "id": 11414682192, "lat": -34.6037719, "lon": -58.3892976, "tags": {"amenity": "bar", "name": "Kooperation BAs"}}, {"type": "node", "id": 11417458270, "lat": -34.626849, "lon": -58.4426906, "tags": {"amenity": "bar", "name": "Antares"}}, {"type": "way", "id": 260698685, "nodes": [2662237977, 2662237978, 2662237979, 2662237980, 2662237977], "tags": {"addr:city": "Buenos Aires", "addr:housenumber": "2476", "addr:postcode": "1425", "addr:street": "Fray Justo Santa Mar\u00eda de Oro", "amenity": "bar", "building": "yes", "internet_access": "wlan", "name": "Wherever Bar", "opening_hours": "Mo-Fr 11:00-24:00; Sa 20:00-24:00", "phone": "+54 11 4777-8029", "website": "http://www.whereverbar.com.ar"}}, {"type": "way", "id": 319362057, "nodes": [3257752211, 3257752209, 3257752210, 3257752207, 3257752204, 3257752205, 3257752206, 3257752208, 3257752211], "tags": {"amenity": "bar", "building": "yes", "name": "Club Serrano"}}, {"type": "way", "id": 470728596, "nodes": [4600539799, 4649116835, 4649116836, 4649116837, 4649116838, 4600539800, 4600539799], "tags": {"addr:housenumber": "2468", "addr:street": "Mendoza", "amenity": "bar", "building": "yes", "name": "Pool Mendoza", "opening_hours": "Mo-Th 11:00-02:00; Fr,Sa 11:00-05:00; Su 11:00-24:00", "outdoor_seating": "sidewalk", "sport": "billiards", "wheelchair": "yes"}}, {"type": "way", "id": 471244531, "nodes": [4654129391, 4654129392, 4654129393, 4654129394, 4654129395, 4654129391], "tags": {"addr:street": "Avenida Coronel Niceto Vega", "amenity": "bar", "building": "yes", "name": "Urbano", "source": "Reconocimiento cartogr\u00e1fico de campo 2016 por KG."}}, {"type": "way", "id": 471266201, "nodes": [4654337593, 4654337594, 4654337595, 4654337596, 4654337593], "tags": {"addr:street": "Avenida Coronel Niceto Vega", "amenity": "bar", "building": "yes", "delivery": "no", "name": "Carnal", "outdoor_seating": "yes", "survey:date": "2022-09-05"}}, {"type": "way", "id": 471278893, "nodes": [4654439346, 4654439347, 4654439348, 4654439349, 4654439350, 4654439346], "tags": {"addr:street": "Santo Tom\u00e9", "amenity": "bar", "building": "yes", "name": "Resto Bar", "source": "Reconocimiento terrestre por Kaart 2016"}}, {"type": "way", "id": 471532661, "nodes": [4656903942, 4656903943, 4656903944, 4656903945, 4656903942], "tags": {"addr:street": "Avenida General Mosconi", "amenity": "bar", "building": "yes", "name": "Chopp", "source": "Reconocimiento terrestre cartogr\u00e1fico realizado por Kaart en 2016."}}, {"type": "way", "id": 471549712, "nodes": [4657098089, 4657098090, 4657098091, 4657098092, 4657098093, 4657098089], "tags": {"amenity": "bar", "building": "yes", "name": "Bar Guevara"}}, {"type": "way", "id": 471549718, "nodes": [4657098112, 4657098113, 4672632769, 7040022288, 4657098116, 4657098114, 4657098115, 4657098112], "tags": {"addr:housenumber": "4081", "addr:street": "Avenida Jorge Newbery", "amenity": "bar", "building": "yes", "instagram": "https://www.instagram.com/donnet_te_ama", "name": "Donnet"}}, {"type": "way", "id": 471577808, "nodes": [4657375159, 4657375160, 4657375161, 4657375162, 4657375163, 4657375159], "tags": {"addr:housenumber": "5750", "addr:street": "Avenida Francisco Beir\u00f3", "amenity": "bar", "building": "yes", "internet_access": "no", "name": "Bar Sammy", "phone": "+54 11 4642-9932"}}, {"type": "way", "id": 471624326, "nodes": [4657870349, 4657870350, 4657870351, 4657870352, 4657870353, 4657870354, 4657870355, 4657870349], "tags": {"addr:street": "Nogoy\u00e1", "amenity": "bar", "building": "yes", "name": "Resto Bar", "source": "Reconocimiento terrestre por Kaart 2016"}}, {"type": "way", "id": 471626634, "nodes": [4657889237, 4657889236, 4657889239, 4657889240, 4657889237], "tags": {"addr:street": "Avenida San Mart\u00edn", "amenity": "bar", "building": "yes", "name": "La Mejor", "source": "Reconocimiento terrestre por Kaart 2016"}}, {"type": "way", "id": 471626672, "nodes": [4657898198, 4657898199, 4657898200, 4657898201, 4657898202, 4657898198], "tags": {"addr:street": "Allende", "amenity": "bar", "building": "yes", "name": "Simona Bar", "source": "Reconocimiento terrestre por Kaart 2016"}}, {"type": "way", "id": 471916631, "nodes": [4660663461, 4660663462, 4660663463, 4660663464, 4660663465, 4660663461], "tags": {"addr:street": "Helguera", "amenity": "bar", "building": "yes", "name": "Jacinta", "source": "Reconocimiento terrestre por Kaart 2016"}}, {"type": "way", "id": 471967395, "nodes": [4661162019, 4661162020, 4661162021, 4661162022, 4661162023, 4661162019], "tags": {"amenity": "bar", "building": "yes", "name": "Rodney Bar"}}, {"type": "way", "id": 472688960, "nodes": [4593336892, 4668866710, 4668866711, 4668866712, 4593336892], "tags": {"addr:street": "Thames", "amenity": "bar", "building": "yes", "name": "1310 Bar", "name:es": "1310 Bar", "source": "Reconocimiento terrestre por Kaart 2016"}}, {"type": "way", "id": 472705582, "nodes": [4669053369, 4669053370, 4669053371, 4669053372, 4669053373, 4669053369], "tags": {"addr:housenumber": "4399", "addr:street": "Jos\u00e9 Antonio Cabrera", "amenity": "bar", "building": "yes", "check_date": "2023-11-30", "delivery": "yes", "name": "Cervelar", "opening_hours": "12:00-02:00", "outdoor_seating": "yes", "payment:cash": "yes", "payment:credit_cards": "yes", "payment:debit_cards": "yes", "payment:mastercard": "yes", "payment:visa": "yes", "phone": "+54 11 4022-9603", "source": "Reconocimiento terrestre por Kaart 2016", "takeaway": "yes", "website": "https://www.cervelar.com.ar/"}}, {"type": "way", "id": 472705585, "nodes": [4669053374, 4669053375, 4669053376, 4669053377, 4669053378, 4669053374], "tags": {"addr:street": "Lavalleja", "amenity": "bar", "building": "yes", "check_date": "2023-11-30", "delivery": "yes", "internet_access": "wlan", "internet_access:fee": "customers", "name": "La Perinola", "opening_hours": "Tu-Sa 17:00-01:00", "outdoor_seating": "sidewalk", "payment:cash": "yes", "payment:credit_cards": "yes", "payment:debit_cards": "yes", "payment:mastercard": "yes", "payment:visa": "yes", "takeaway": "yes", "wheelchair": "no"}}, {"type": "way", "id": 472705593, "nodes": [4669053383, 4669053384, 4669053385, 4669053386, 4669053383], "tags": {"addr:street": "Jos\u00e9 Antonio Cabrera", "amenity": "bar", "building": "yes", "delivery": "no", "name": "Shapo", "outdoor_seating": "yes", "source": "Reconocimiento terrestre por Kaart 2016", "takeaway": "no"}}, {"type": "way", "id": 472724031, "nodes": [4669255611, 4669255612, 4669255613, 4669255614, 4669255615, 4669255611], "tags": {"addr:street": "Avenida Medrano", "amenity": "bar", "building": "yes", "name": "Cort\u00e1zar", "source": "Reconocimiento terrestre por Kaart 2016"}}, {"type": "way", "id": 473049389, "nodes": [4672215416, 4672215408, 4672215409, 4672215410, 4672215411, 4672215412, 4672215413, 4672215414, 4672215415, 4672215417, 4672215416], "tags": {"amenity": "bar", "building": "yes", "name": "Rond Point"}}, {"type": "way", "id": 473155021, "nodes": [4312146517, 4673201390, 4673201391, 4673201392, 4673201393, 4312146517], "tags": {"addr:street": "Cochabamba", "amenity": "bar", "building": "yes", "name": "La Ib\u00e9rica", "source": "Reconocimiento terrestre por Kaart 2016"}}, {"type": "way", "id": 473405387, "nodes": [4675229619, 4675229620, 4675229621, 4675229622, 4675229619], "tags": {"addr:street": "Avenida Nazca", "amenity": "bar", "building": "yes", "name": "Tribu", "source": "Reconocimiento terrestre por Kaart 2016"}}, {"type": "way", "id": 473843482, "nodes": [1756736229, 6270929844, 4678794618, 6270929845, 4678794620, 1756736229], "tags": {"addr:housename": "Orsai Bar", "addr:housenumber": "471", "addr:street": "Humberto I", "amenity": "bar", "building": "yes", "name": "El Espiche", "source": "Reconocimiento terrestre por Kaart 2016"}}, {"type": "way", "id": 473894661, "nodes": [4679279782, 4679279783, 8825937451, 4679279784, 4679279785, 4679279782], "tags": {"addr:street": "Avenida Rivadavia", "amenity": "bar", "building": "yes", "name": "Sasha", "source": "Reconocimiento terrestre por Kaart 2016"}}, {"type": "way", "id": 474438961, "nodes": [4683946095, 4683946096, 4683946097, 4683946098, 4683946099, 4683946095], "tags": {"addr:street": "Oliden", "amenity": "bar", "building": "yes", "name": "Bien Argentino", "source": "Reconocimiento terrestre por Kaart 2016"}}, {"type": "way", "id": 474494844, "nodes": [4684429383, 4684429384, 4684429385, 4684429386, 4684429387, 4684429383], "tags": {"addr:street": "Avenida Coronel C\u00e1rdenas", "amenity": "bar", "building": "yes", "name": "Resto Bar La Paz", "source": "Reconocimiento terrestre por Kaart 2016"}}, {"type": "way", "id": 474527790, "nodes": [4684654454, 4684654455, 4684654456, 4684654457, 4684654454], "tags": {"addr:city": "Ciudad Aut\u00f3noma de Buenos Aires", "addr:housenumber": "6656", "addr:street": "Avenida San Mart\u00edn", "amenity": "bar", "building": "yes", "name": "La Roca Bar", "source": "Reconocimiento terrestre 2016 por Kaart."}}, {"type": "way", "id": 476418016, "nodes": [4700106965, 4700106966, 4288045096, 4700106968, 4700106969, 4700106965], "tags": {"addr:housenumber": "5000", "addr:street": "Avenida Rivadavia", "amenity": "bar", "building": "yes", "cuisine": "diner;argentinian;breakfast;coffee_shop", "internet_access": "wlan", "name": "Army", "opening_hours": "Mo-Su 06:00-02:00", "phone": "+54 11 4903-8802", "website": "http://cafearmy.com.ar/"}}, {"type": "way", "id": 476770837, "nodes": [4702543613, 4702543614, 4702543615, 4702543616, 4702543617, 4702543613], "tags": {"addr:city": "Buenos Aires", "addr:street": "Avenida San Juan", "amenity": "bar", "building": "yes", "name": "Santa Lucia", "source": "Reconocimiento terrestre 2016 por Kaart.", "wikidata": "Q97177307", "wikipedia": "es:Hospital de Oftalmolog\u00eda Santa Luc\u00eda"}}, {"type": "way", "id": 476957503, "nodes": [4703774581, 4703774582, 4703774583, 4703774584, 4703774585, 4703774581], "tags": {"addr:street": "Avenida Eva Per\u00f3n", "amenity": "bar", "building": "yes", "name": "Bar Las Vegas", "source": "Reconocimiento terrestre por Kaart 2016"}}, {"type": "way", "id": 476994973, "nodes": [4591654015, 4704114195, 4704114196, 4704114197, 4591654015], "tags": {"addr:street": "Avenida Eva Per\u00f3n", "amenity": "bar", "building": "yes", "name": "Los Cantaritos", "source": "Reconocimiento terrestre por Kaart 2016"}}, {"type": "way", "id": 476994974, "nodes": [4704114198, 4704114199, 4704114200, 4704114201, 4704114202, 4704114198], "tags": {"addr:street": "Avenida Lafuente", "amenity": "bar", "building": "yes", "name": "Bechamel"}}, {"type": "way", "id": 477015011, "nodes": [4569358858, 4704273494, 4704273495, 4704273496, 4704273497, 4569358858], "tags": {"addr:city": "Buenos Aires", "addr:housenumber": "982", "addr:street": "Defensa", "amenity": "bar", "building": "yes", "name": "Cervelar", "source": "Reconocimiento terrestre por Kaart 2016"}}, {"type": "way", "id": 477529978, "nodes": [3346123532, 4708641289, 4708641290, 4708641291, 4708641292, 3346123532], "tags": {"addr:street": "Avenida La Plata", "amenity": "bar", "building": "yes", "name": "HD", "source": "Reconocimiento terrestre por Kaart 2016."}}, {"type": "way", "id": 477535020, "nodes": [4708681591, 1402319662, 4708681597, 4708681598, 4708681591], "tags": {"addr:street": "Avenida La Plata", "amenity": "bar", "building": "yes", "name": "Tres80"}}, {"type": "way", "id": 556861699, "nodes": [5371286169, 5371286170, 5371286171, 5371286172, 5371286169], "tags": {"amenity": "bar", "brewery": "yes", "name": "El Bar\u00f3n de Villa Urquiza"}}, {"type": "way", "id": 673432599, "nodes": [6308444667, 6306546954, 6306546952, 6306546953, 6308444669, 6308444667], "tags": {"addr:housenumber": "1443", "addr:street": "Ar\u00e9valo", "amenity": "bar", "building": "yes", "building:levels": "1", "name": "Frank's", "toilets:wheelchair": "yes", "wheelchair": "yes"}}, {"type": "way", "id": 673493781, "nodes": [6309217059, 6307053284, 6307053282, 6309217058, 6309217059], "tags": {"amenity": "bar", "building": "yes", "building:levels": "2", "name": "Space Mokey Bar"}}, {"type": "way", "id": 880793808, "nodes": [8192202161, 8192207870, 8192202162, 8192202160, 8192202159, 8192202166, 8192202161], "tags": {"addr:street": "Lisboa", "amenity": "bar", "name": "Pista Uno", "name:es": "Pista Uno", "wheelchair": "limited"}}, {"type": "way", "id": 1207069549, "nodes": [3966684092, 11184953969, 11184953968, 11184953967, 3966684092], "tags": {"addr:housenumber": "1781", "addr:street": "Godoy Cruz", "amenity": "bar", "building": "yes", "building:levels": "1", "contact:instagram": "https://www.instagram.com/lovak.bar/", "contact:website": "https://lovakbar.com.ar/", "name": "L\u00f6vak", "opening_hours": "Fr-Sa 19:00-05:00; Th 19:00-02:00 \"Solo con reservas\"", "website:menu": "https://menu.parramarketplace.com/lovak.bar"}}, {"type": "way", "id": 1207069557, "nodes": [11184954004, 11184954005, 11184954003, 11184954002, 11184954004], "tags": {"addr:city": "Palermo", "addr:country": "AR", "addr:housenumber": "5309", "addr:street": "Honduras", "amenity": "bar", "building": "yes", "building:levels": "2", "contact:email": "chelacraftbeer@gmail.com", "contact:mobile": "+54 9 11 3182 5067", "contact:website": "https://www.chelacraftbeer.com/", "name": "Chela Craft Beer", "opening_hours": "Th 19:00-02:00; Fr-Sa 19:00-4:00"}}, {"type": "way", "id": 1207344172, "nodes": [11187169479, 11187169478, 11187169477, 11187169476, 11187169475, 11187169474, 11187169479], "tags": {"addr:city": "Palermo", "addr:country": "AR", "addr:housenumber": "1801", "addr:postcode": "C1414DBC", "addr:street": "Fray Justo Santa Mar\u00eda de Oro", "amenity": "bar", "building": "yes", "building:levels": "1", "contact:instagram": "https://www.instagram.com/brukbarba/", "contact:website": "https://www.brukbar.com.ar/", "height": "5", "name": "Brukbar", "opening_hours": "20:00-04:30", "opening_hours:kitchen": "20:00-03:00"}}]}